{
"type": "FeatureCollection",
"name": "pharmacies_in_berlin",
"crs": { "type": "name", "properties": { "name": "urn:ogc:def:crs:OGC:1.3:CRS84" } },
"features": [
{ "type": "Feature", "properties": { "element": "node", "id": 60775323, "name": "Reichenberger Apotheke", "operator": null, "amenity": "pharmacy" }, "geometry": { "type": "Point", "coordinates": [ 13.4866016, 52.5407412 ] } },
{ "type": "Feature", "properties": { "element": "node", "id": 60848447, "name": "Castello-Apotheke", "operator": null, "amenity": "pharmacy" }, "geometry": { "type": "Point", "coordinates": [ 13.4696536, 52.5318353 ] } },
{ "type": "Feature", "properties": { "element": "node", "id": 60852928, "name": "Rosen Apotheke", "operator": null, "amenity": "pharmacy" }, "geometry": { "type": "Point", "coordinates": [ 13.4685134, 52.5275552 ] } },
{ "type": "Feature", "properties": { "element": "node", "id": 68437791, "name": "Margareten-Apotheke", "operator": null, "amenity": "pharmacy" }, "geometry": { "type": "Point", "coordinates": [ 13.4505704, 52.4893898 ] } },
{ "type": "Feature", "properties": { "element": "node", "id": 69226035, "name": "Leipziger Apotheke", "operator": null, "amenity": "pharmacy" }, "geometry": { "type": "Point", "coordinates": [ 13.3958628, 52.5105561 ] } },
{ "type": "Feature", "properties": { "element": "node", "id": 76507297, "name": "Preußen-Apotheke", "operator": null, "amenity": "pharmacy" }, "geometry": { "type": "Point", "coordinates": [ 13.3190694, 52.4815485 ] } },
{ "type": "Feature", "properties": { "element": "node", "id": 76519952, "name": "Bundes-Apotheke", "operator": null, "amenity": "pharmacy" }, "geometry": { "type": "Point", "coordinates": [ 13.3314064, 52.4865543 ] } },
{ "type": "Feature", "properties": { "element": "node", "id": 76596388, "name": "Mühlenberg-Apotheke", "operator": null, "amenity": "pharmacy" }, "geometry": { "type": "Point", "coordinates": [ 13.4423197, 52.5431994 ] } },
{ "type": "Feature", "properties": { "element": "node", "id": 78244254, "name": "Axels Apotheke", "operator": null, "amenity": "pharmacy" }, "geometry": { "type": "Point", "coordinates": [ 13.3947881, 52.5071247 ] } },
{ "type": "Feature", "properties": { "element": "node", "id": 79603436, "name": "Diamant Apotheke", "operator": null, "amenity": "pharmacy" }, "geometry": { "type": "Point", "coordinates": [ 13.3287743, 52.5633045 ] } },
{ "type": "Feature", "properties": { "element": "node", "id": 79606682, "name": "Apotheke am Markt Reinickendorf", "operator": null, "amenity": "pharmacy" }, "geometry": { "type": "Point", "coordinates": [ 13.3170343, 52.5668918 ] } },
{ "type": "Feature", "properties": { "element": "node", "id": 79624638, "name": "Barlach Apotheke", "operator": null, "amenity": "pharmacy" }, "geometry": { "type": "Point", "coordinates": [ 13.3213944, 52.5701291 ] } },
{ "type": "Feature", "properties": { "element": "node", "id": 79688159, "name": "Park-Apotheke", "operator": null, "amenity": "pharmacy" }, "geometry": { "type": "Point", "coordinates": [ 13.3289844, 52.4815398 ] } },
{ "type": "Feature", "properties": { "element": "node", "id": 81362602, "name": "Kranich-Apotheke", "operator": null, "amenity": "pharmacy" }, "geometry": { "type": "Point", "coordinates": [ 13.2716035, 52.5104923 ] } },
{ "type": "Feature", "properties": { "element": "node", "id": 87036261, "name": "Nordland Apotheke", "operator": "Tina Töllner e.K.", "amenity": "pharmacy" }, "geometry": { "type": "Point", "coordinates": [ 13.3841248, 52.5306975 ] } },
{ "type": "Feature", "properties": { "element": "node", "id": 87040402, "name": "Friedrichstadt Apotheke", "operator": null, "amenity": "pharmacy" }, "geometry": { "type": "Point", "coordinates": [ 13.3868843, 52.5117692 ] } },
{ "type": "Feature", "properties": { "element": "node", "id": 89274697, "name": "Panorama Apotheke", "operator": null, "amenity": "pharmacy" }, "geometry": { "type": "Point", "coordinates": [ 13.4098188, 52.521847 ] } },
{ "type": "Feature", "properties": { "element": "node", "id": 89274888, "name": "Bezirksapotheke am Roten Rathaus", "operator": "BEZIRKSapotheke", "amenity": "pharmacy" }, "geometry": { "type": "Point", "coordinates": [ 13.4111159, 52.519834 ] } },
{ "type": "Feature", "properties": { "element": "node", "id": 89275182, "name": "Fischerinsel-Apotheke", "operator": "Ralf Goepfert e.K.", "amenity": "pharmacy" }, "geometry": { "type": "Point", "coordinates": [ 13.4053524, 52.5133809 ] } },
{ "type": "Feature", "properties": { "element": "node", "id": 203469194, "name": "Poseidon-Apotheke", "operator": null, "amenity": "pharmacy" }, "geometry": { "type": "Point", "coordinates": [ 13.5421939, 52.5276071 ] } },
{ "type": "Feature", "properties": { "element": "node", "id": 203474469, "name": "Skarabäus-Apotheke", "operator": "Raphael Abongnelah", "amenity": "pharmacy" }, "geometry": { "type": "Point", "coordinates": [ 13.5558118, 52.5204665 ] } },
{ "type": "Feature", "properties": { "element": "node", "id": 250195921, "name": "Alte Roland-Apotheke", "operator": null, "amenity": "pharmacy" }, "geometry": { "type": "Point", "coordinates": [ 13.3501221, 52.5264625 ] } },
{ "type": "Feature", "properties": { "element": "node", "id": 251737915, "name": "Virchow Apotheke", "operator": null, "amenity": "pharmacy" }, "geometry": { "type": "Point", "coordinates": [ 13.3498263, 52.54973 ] } },
{ "type": "Feature", "properties": { "element": "node", "id": 254307048, "name": "Wotan Apotheke", "operator": null, "amenity": "pharmacy" }, "geometry": { "type": "Point", "coordinates": [ 13.3218338, 52.5069033 ] } },
{ "type": "Feature", "properties": { "element": "node", "id": 255825174, "name": "Wildenbruch Apotheke", "operator": "Mosa Masalmeh", "amenity": "pharmacy" }, "geometry": { "type": "Point", "coordinates": [ 13.440147, 52.4818892 ] } },
{ "type": "Feature", "properties": { "element": "node", "id": 255825368, "name": "Frühlicht-Apotheke", "operator": null, "amenity": "pharmacy" }, "geometry": { "type": "Point", "coordinates": [ 13.4394937, 52.4803687 ] } },
{ "type": "Feature", "properties": { "element": "node", "id": 259081139, "name": "Nordring Apotheke", "operator": null, "amenity": "pharmacy" }, "geometry": { "type": "Point", "coordinates": [ 13.4133047, 52.549263 ] } },
{ "type": "Feature", "properties": { "element": "node", "id": 259081143, "name": "Vita Apotheke", "operator": null, "amenity": "pharmacy" }, "geometry": { "type": "Point", "coordinates": [ 13.4079077, 52.5509103 ] } },
{ "type": "Feature", "properties": { "element": "node", "id": 260865620, "name": "Taut-Apotheke", "operator": null, "amenity": "pharmacy" }, "geometry": { "type": "Point", "coordinates": [ 13.5725538, 52.4124087 ] } },
{ "type": "Feature", "properties": { "element": "node", "id": 261963290, "name": "Grüne Apotheke", "operator": "DocMorris Kooperationen GmbH", "amenity": "pharmacy" }, "geometry": { "type": "Point", "coordinates": [ 13.456649, 52.4905931 ] } },
{ "type": "Feature", "properties": { "element": "node", "id": 262213475, "name": "Möllendorff-Apotheke", "operator": null, "amenity": "pharmacy" }, "geometry": { "type": "Point", "coordinates": [ 13.4800051, 52.5241575 ] } },
{ "type": "Feature", "properties": { "element": "node", "id": 263699380, "name": "Robinson Apotheke", "operator": null, "amenity": "pharmacy" }, "geometry": { "type": "Point", "coordinates": [ 13.5829, 52.517681 ] } },
{ "type": "Feature", "properties": { "element": "node", "id": 266630604, "name": "Georginen-Apotheke", "operator": "Andrea Weigel", "amenity": "pharmacy" }, "geometry": { "type": "Point", "coordinates": [ 13.6121832, 52.5111499 ] } },
{ "type": "Feature", "properties": { "element": "node", "id": 266632232, "name": "Mahlsdorfer Apotheke", "operator": null, "amenity": "pharmacy" }, "geometry": { "type": "Point", "coordinates": [ 13.6138214, 52.509361 ] } },
{ "type": "Feature", "properties": { "element": "node", "id": 266674656, "name": "Neue Medikus Apotheke", "operator": "Christoph Neumann e.K.", "amenity": "pharmacy" }, "geometry": { "type": "Point", "coordinates": [ 13.592044, 52.5071368 ] } },
{ "type": "Feature", "properties": { "element": "node", "id": 267366952, "name": "Wins-Apotheke", "operator": null, "amenity": "pharmacy" }, "geometry": { "type": "Point", "coordinates": [ 13.4270624, 52.5360082 ] } },
{ "type": "Feature", "properties": { "element": "node", "id": 267860831, "name": "Seegefelder-Apotheke", "operator": null, "amenity": "pharmacy" }, "geometry": { "type": "Point", "coordinates": [ 13.1879163, 52.5372848 ] } },
{ "type": "Feature", "properties": { "element": "node", "id": 268636979, "name": "Brandenburg-Apotheke", "operator": null, "amenity": "pharmacy" }, "geometry": { "type": "Point", "coordinates": [ 13.3071113, 52.4985391 ] } },
{ "type": "Feature", "properties": { "element": "node", "id": 268726812, "name": "Rosegger-Apotheke", "operator": "Axel Emmrich", "amenity": "pharmacy" }, "geometry": { "type": "Point", "coordinates": [ 13.4451781, 52.4789497 ] } },
{ "type": "Feature", "properties": { "element": "node", "id": 268844381, "name": "Storchen-Apotheke", "operator": null, "amenity": "pharmacy" }, "geometry": { "type": "Point", "coordinates": [ 13.2315014, 52.6128103 ] } },
{ "type": "Feature", "properties": { "element": "node", "id": 268844523, "name": "Apotheke am Markt", "operator": "Ulrike Klaus", "amenity": "pharmacy" }, "geometry": { "type": "Point", "coordinates": [ 13.2348292, 52.607565 ] } },
{ "type": "Feature", "properties": { "element": "node", "id": 268981834, "name": "Grimm-Apotheke", "operator": null, "amenity": "pharmacy" }, "geometry": { "type": "Point", "coordinates": [ 13.4134932, 52.4935361 ] } },
{ "type": "Feature", "properties": { "element": "node", "id": 269478054, "name": "Apotheke am Engelbecken", "operator": "Ralf Goepfert e.K.", "amenity": "pharmacy" }, "geometry": { "type": "Point", "coordinates": [ 13.414104, 52.507579 ] } },
{ "type": "Feature", "properties": { "element": "node", "id": 270814718, "name": "Kur-Apotheke", "operator": null, "amenity": "pharmacy" }, "geometry": { "type": "Point", "coordinates": [ 13.219675, 52.4322803 ] } },
{ "type": "Feature", "properties": { "element": "node", "id": 270814721, "name": "Die Dorotheen Apotheke", "operator": "Dr. Petra Schneider", "amenity": "pharmacy" }, "geometry": { "type": "Point", "coordinates": [ 13.216597, 52.4271388 ] } },
{ "type": "Feature", "properties": { "element": "node", "id": 270906159, "name": "Rosen-Apotheke Berlin", "operator": null, "amenity": "pharmacy" }, "geometry": { "type": "Point", "coordinates": [ 13.7098785, 52.4327628 ] } },
{ "type": "Feature", "properties": { "element": "node", "id": 271282692, "name": "Kolberger Apotheke", "operator": null, "amenity": "pharmacy" }, "geometry": { "type": "Point", "coordinates": [ 13.3735976, 52.543989 ] } },
{ "type": "Feature", "properties": { "element": "node", "id": 271405514, "name": "Hauptstadt Apotheke", "operator": "Jana Schreiber", "amenity": "pharmacy" }, "geometry": { "type": "Point", "coordinates": [ 13.1981714, 52.5320913 ] } },
{ "type": "Feature", "properties": { "element": "node", "id": 271708716, "name": "Altstadt Apotheke", "operator": null, "amenity": "pharmacy" }, "geometry": { "type": "Point", "coordinates": [ 13.2052104, 52.5366282 ] } },
{ "type": "Feature", "properties": { "element": "node", "id": 271708914, "name": "Löwen-Apotheke", "operator": null, "amenity": "pharmacy" }, "geometry": { "type": "Point", "coordinates": [ 13.2060246, 52.5376866 ] } },
{ "type": "Feature", "properties": { "element": "node", "id": 271710934, "name": "Adler-Apotheke", "operator": null, "amenity": "pharmacy" }, "geometry": { "type": "Point", "coordinates": [ 13.2036654, 52.5376635 ] } },
{ "type": "Feature", "properties": { "element": "node", "id": 271713876, "name": "Spandauer Apotheke", "operator": "DocMorris", "amenity": "pharmacy" }, "geometry": { "type": "Point", "coordinates": [ 13.2059594, 52.542908 ] } },
{ "type": "Feature", "properties": { "element": "node", "id": 272385616, "name": "Jäger Apotheke", "operator": null, "amenity": "pharmacy" }, "geometry": { "type": "Point", "coordinates": [ 13.1970215, 52.5211632 ] } },
{ "type": "Feature", "properties": { "element": "node", "id": 272385919, "name": "Adam Apotheke", "operator": null, "amenity": "pharmacy" }, "geometry": { "type": "Point", "coordinates": [ 13.1948184, 52.5208942 ] } },
{ "type": "Feature", "properties": { "element": "node", "id": 272386317, "name": "Pichelsdorf Apotheke", "operator": null, "amenity": "pharmacy" }, "geometry": { "type": "Point", "coordinates": [ 13.1971411, 52.5254705 ] } },
{ "type": "Feature", "properties": { "element": "node", "id": 272499930, "name": "Ringbahn-Apotheke", "operator": null, "amenity": "pharmacy" }, "geometry": { "type": "Point", "coordinates": [ 13.4421953, 52.4678648 ] } },
{ "type": "Feature", "properties": { "element": "node", "id": 272662737, "name": "Kaiser Apotheke", "operator": null, "amenity": "pharmacy" }, "geometry": { "type": "Point", "coordinates": [ 13.3939616, 52.4889422 ] } },
{ "type": "Feature", "properties": { "element": "node", "id": 273743446, "name": "Apotheke Bahnhof Spandau", "operator": null, "amenity": "pharmacy" }, "geometry": { "type": "Point", "coordinates": [ 13.1956671, 52.5356492 ] } },
{ "type": "Feature", "properties": { "element": "node", "id": 274864546, "name": "Hansa Apotheke", "operator": null, "amenity": "pharmacy" }, "geometry": { "type": "Point", "coordinates": [ 13.198061, 52.5217984 ] } },
{ "type": "Feature", "properties": { "element": "node", "id": 275623282, "name": "gesundleben Apotheke Mahlsdorf", "operator": null, "amenity": "pharmacy" }, "geometry": { "type": "Point", "coordinates": [ 13.6120014, 52.5133802 ] } },
{ "type": "Feature", "properties": { "element": "node", "id": 275887592, "name": "Galenus-Apotheke", "operator": null, "amenity": "pharmacy" }, "geometry": { "type": "Point", "coordinates": [ 13.386715, 52.5236295 ] } },
{ "type": "Feature", "properties": { "element": "node", "id": 276145617, "name": "Stern Apotheke", "operator": "Christoph Albertini e.K.", "amenity": "pharmacy" }, "geometry": { "type": "Point", "coordinates": [ 13.4886389, 52.4671189 ] } },
{ "type": "Feature", "properties": { "element": "node", "id": 276774391, "name": "Marien-Apotheke", "operator": null, "amenity": "pharmacy" }, "geometry": { "type": "Point", "coordinates": [ 13.1833779, 52.512828 ] } },
{ "type": "Feature", "properties": { "element": "node", "id": 280296894, "name": "Thalia Apotheke", "operator": null, "amenity": "pharmacy" }, "geometry": { "type": "Point", "coordinates": [ 13.3464079, 52.4364093 ] } },
{ "type": "Feature", "properties": { "element": "node", "id": 282744493, "name": "Mirbach", "operator": null, "amenity": "pharmacy" }, "geometry": { "type": "Point", "coordinates": [ 13.4686866, 52.517377 ] } },
{ "type": "Feature", "properties": { "element": "node", "id": 282762536, "name": "Frankfurter Apotheke", "operator": null, "amenity": "pharmacy" }, "geometry": { "type": "Point", "coordinates": [ 13.4648596, 52.5144752 ] } },
{ "type": "Feature", "properties": { "element": "node", "id": 282836294, "name": "Treskow-Apotheke", "operator": null, "amenity": "pharmacy" }, "geometry": { "type": "Point", "coordinates": [ 13.526263, 52.4825451 ] } },
{ "type": "Feature", "properties": { "element": "node", "id": 283346896, "name": "Uferpalais-Apotheke", "operator": null, "amenity": "pharmacy" }, "geometry": { "type": "Point", "coordinates": [ 13.2094458, 52.5467539 ] } },
{ "type": "Feature", "properties": { "element": "node", "id": 287852225, "name": "Bärliner Apotheke", "operator": null, "amenity": "pharmacy" }, "geometry": { "type": "Point", "coordinates": [ 13.5724583, 52.5678242 ] } },
{ "type": "Feature", "properties": { "element": "node", "id": 287970707, "name": "Apotheke im Kaufland", "operator": null, "amenity": "pharmacy" }, "geometry": { "type": "Point", "coordinates": [ 13.4445534, 52.5643537 ] } },
{ "type": "Feature", "properties": { "element": "node", "id": 291014069, "name": "Tulpen-Apotheke", "operator": "Apothekerin Irmtraud Knuth", "amenity": "pharmacy" }, "geometry": { "type": "Point", "coordinates": [ 13.3997542, 52.4163173 ] } },
{ "type": "Feature", "properties": { "element": "node", "id": 291212713, "name": "Atlas-Apotheke", "operator": "Apotheker Dr. Christian Fechner e. K.", "amenity": "pharmacy" }, "geometry": { "type": "Point", "coordinates": [ 13.1871238, 52.5473903 ] } },
{ "type": "Feature", "properties": { "element": "node", "id": 291432407, "name": "Kreisel-Apotheke", "operator": null, "amenity": "pharmacy" }, "geometry": { "type": "Point", "coordinates": [ 13.3209201, 52.4564263 ] } },
{ "type": "Feature", "properties": { "element": "node", "id": 292699498, "name": "Birken-Apotheke", "operator": null, "amenity": "pharmacy" }, "geometry": { "type": "Point", "coordinates": [ 13.3351509, 52.5953568 ] } },
{ "type": "Feature", "properties": { "element": "node", "id": 297410017, "name": "Pharmland-Apotheke", "operator": "Dr. Frank Kiesewalter", "amenity": "pharmacy" }, "geometry": { "type": "Point", "coordinates": [ 13.4969744, 52.4997043 ] } },
{ "type": "Feature", "properties": { "element": "node", "id": 297489806, "name": "Helgoland Apotheke", "operator": null, "amenity": "pharmacy" }, "geometry": { "type": "Point", "coordinates": [ 13.359647, 52.4125676 ] } },
{ "type": "Feature", "properties": { "element": "node", "id": 297512115, "name": "Helianthus-Apotheke", "operator": "Sharareh Hemmati Sadeghi", "amenity": "pharmacy" }, "geometry": { "type": "Point", "coordinates": [ 13.3308517, 52.4675849 ] } },
{ "type": "Feature", "properties": { "element": "node", "id": 297512117, "name": "Burger Apotheke", "operator": "Norbert Peter e.K.", "amenity": "pharmacy" }, "geometry": { "type": "Point", "coordinates": [ 13.3279955, 52.4672318 ] } },
{ "type": "Feature", "properties": { "element": "node", "id": 304367397, "name": "Glückskind Apotheke", "operator": null, "amenity": "pharmacy" }, "geometry": { "type": "Point", "coordinates": [ 13.1424401, 52.5249401 ] } },
{ "type": "Feature", "properties": { "element": "node", "id": 307983960, "name": "Leo Apotheke", "operator": null, "amenity": "pharmacy" }, "geometry": { "type": "Point", "coordinates": [ 13.3586662, 52.5463569 ] } },
{ "type": "Feature", "properties": { "element": "node", "id": 308019535, "name": "Apotheke 24", "operator": null, "amenity": "pharmacy" }, "geometry": { "type": "Point", "coordinates": [ 13.5142084, 52.5054076 ] } },
{ "type": "Feature", "properties": { "element": "node", "id": 308719063, "name": "Hedwig-Apotheke", "operator": null, "amenity": "pharmacy" }, "geometry": { "type": "Point", "coordinates": [ 13.3262036, 52.4274299 ] } },
{ "type": "Feature", "properties": { "element": "node", "id": 310377174, "name": "Ahorn Apotheke", "operator": "Bettina Achilles", "amenity": "pharmacy" }, "geometry": { "type": "Point", "coordinates": [ 13.3428141, 52.4801897 ] } },
{ "type": "Feature", "properties": { "element": "node", "id": 310764887, "name": "Berliner Bär-Apotheke", "operator": "Britta Küttner", "amenity": "pharmacy" }, "geometry": { "type": "Point", "coordinates": [ 13.5128096, 52.5057922 ] } },
{ "type": "Feature", "properties": { "element": "node", "id": 311089081, "name": "M.C. Apotheke", "operator": null, "amenity": "pharmacy" }, "geometry": { "type": "Point", "coordinates": [ 13.3167347, 52.5028212 ] } },
{ "type": "Feature", "properties": { "element": "node", "id": 312714262, "name": "Tauern-Apotheke", "operator": null, "amenity": "pharmacy" }, "geometry": { "type": "Point", "coordinates": [ 13.3978849, 52.4236416 ] } },
{ "type": "Feature", "properties": { "element": "node", "id": 312956048, "name": "Alexandrinen-Apotheke", "operator": null, "amenity": "pharmacy" }, "geometry": { "type": "Point", "coordinates": [ 13.2899562, 52.4752159 ] } },
{ "type": "Feature", "properties": { "element": "node", "id": 313173921, "name": "Pankow-Apotheke", "operator": "Christoph Gümpel", "amenity": "pharmacy" }, "geometry": { "type": "Point", "coordinates": [ 13.4155075, 52.5667802 ] } },
{ "type": "Feature", "properties": { "element": "node", "id": 313584459, "name": "Apotheke Dahlem-Dorf", "operator": null, "amenity": "pharmacy" }, "geometry": { "type": "Point", "coordinates": [ 13.2924415, 52.4578484 ] } },
{ "type": "Feature", "properties": { "element": "node", "id": 313933591, "name": "Arkona Apotheke", "operator": null, "amenity": "pharmacy" }, "geometry": { "type": "Point", "coordinates": [ 13.4063535, 52.5355836 ] } },
{ "type": "Feature", "properties": { "element": "node", "id": 314022672, "name": "Insel Apotheke", "operator": null, "amenity": "pharmacy" }, "geometry": { "type": "Point", "coordinates": [ 13.3110277, 52.5015083 ] } },
{ "type": "Feature", "properties": { "element": "node", "id": 314051024, "name": "Ahorn Apotheke", "operator": null, "amenity": "pharmacy" }, "geometry": { "type": "Point", "coordinates": [ 13.450092, 52.5235603 ] } },
{ "type": "Feature", "properties": { "element": "node", "id": 315234035, "name": "Preußenapotheke", "operator": null, "amenity": "pharmacy" }, "geometry": { "type": "Point", "coordinates": [ 13.3849712, 52.4479601 ] } },
{ "type": "Feature", "properties": { "element": "node", "id": 315803527, "name": "Regina Apotheke", "operator": null, "amenity": "pharmacy" }, "geometry": { "type": "Point", "coordinates": [ 13.3447676, 52.4912774 ] } },
{ "type": "Feature", "properties": { "element": "node", "id": 315820338, "name": "Akazien-Apotheke", "operator": null, "amenity": "pharmacy" }, "geometry": { "type": "Point", "coordinates": [ 13.3565305, 52.4866004 ] } },
{ "type": "Feature", "properties": { "element": "node", "id": 316533474, "name": "Waage Apotheke", "operator": null, "amenity": "pharmacy" }, "geometry": { "type": "Point", "coordinates": [ 13.2973176, 52.497907 ] } },
{ "type": "Feature", "properties": { "element": "node", "id": 316704530, "name": "Aida Apotheke", "operator": null, "amenity": "pharmacy" }, "geometry": { "type": "Point", "coordinates": [ 13.3022696, 52.5260065 ] } },
{ "type": "Feature", "properties": { "element": "node", "id": 317148496, "name": "Petersburger Apotheke", "operator": null, "amenity": "pharmacy" }, "geometry": { "type": "Point", "coordinates": [ 13.4496352, 52.5214676 ] } },
{ "type": "Feature", "properties": { "element": "node", "id": 317175755, "name": "Albrecht-Apotheke Steglitz", "operator": "Fr. Martina Bethke e.K.", "amenity": "pharmacy" }, "geometry": { "type": "Point", "coordinates": [ 13.319862, 52.4565269 ] } },
{ "type": "Feature", "properties": { "element": "node", "id": 317552407, "name": "Easy Apotheke", "operator": "Christian Melzer e.K.", "amenity": "pharmacy" }, "geometry": { "type": "Point", "coordinates": [ 13.5362695, 52.4332816 ] } },
{ "type": "Feature", "properties": { "element": "node", "id": 317552408, "name": "Aesculap Apotheke", "operator": "Christian Melzer e.K.", "amenity": "pharmacy" }, "geometry": { "type": "Point", "coordinates": [ 13.5373807, 52.4317485 ] } },
{ "type": "Feature", "properties": { "element": "node", "id": 317614303, "name": "Fräulein Beckers Lieblingsapotheke", "operator": null, "amenity": "pharmacy" }, "geometry": { "type": "Point", "coordinates": [ 13.4428803, 52.5174584 ] } },
{ "type": "Feature", "properties": { "element": "node", "id": 319092509, "name": "Merlin-Apotheke", "operator": null, "amenity": "pharmacy" }, "geometry": { "type": "Point", "coordinates": [ 13.4149448, 52.5267866 ] } },
{ "type": "Feature", "properties": { "element": "node", "id": 319494473, "name": "Apotheke im Kaufzentrum", "operator": null, "amenity": "pharmacy" }, "geometry": { "type": "Point", "coordinates": [ 13.2754707, 52.5361217 ] } },
{ "type": "Feature", "properties": { "element": "node", "id": 322151533, "name": "Apotheke am Koppenplatz", "operator": null, "amenity": "pharmacy" }, "geometry": { "type": "Point", "coordinates": [ 13.3978184, 52.5274856 ] } },
{ "type": "Feature", "properties": { "element": "node", "id": 322490383, "name": "Alexa Apotheke", "operator": null, "amenity": "pharmacy" }, "geometry": { "type": "Point", "coordinates": [ 13.4155159, 52.5189866 ] } },
{ "type": "Feature", "properties": { "element": "node", "id": 323597684, "name": "Gertruden-Apotheke", "operator": "Norbert Bartetzko", "amenity": "pharmacy" }, "geometry": { "type": "Point", "coordinates": [ 13.3284113, 52.4285785 ] } },
{ "type": "Feature", "properties": { "element": "node", "id": 324023598, "name": "Cecilien-Apotheke", "operator": "Ludger Klabes", "amenity": "pharmacy" }, "geometry": { "type": "Point", "coordinates": [ 13.5917073, 52.5207833 ] } },
{ "type": "Feature", "properties": { "element": "node", "id": 324363717, "name": "Apotheke am Strausberger Platz", "operator": "Christine Gunkel e.K.", "amenity": "pharmacy" }, "geometry": { "type": "Point", "coordinates": [ 13.4292246, 52.5177829 ] } },
{ "type": "Feature", "properties": { "element": "node", "id": 324789478, "name": "Anker Apotheke", "operator": null, "amenity": "pharmacy" }, "geometry": { "type": "Point", "coordinates": [ 13.3638844, 52.4130862 ] } },
{ "type": "Feature", "properties": { "element": "node", "id": 330966646, "name": "Hölderlin-Apotheke", "operator": null, "amenity": "pharmacy" }, "geometry": { "type": "Point", "coordinates": [ 13.3883155, 52.5031924 ] } },
{ "type": "Feature", "properties": { "element": "node", "id": 332555438, "name": "Seume-Apotheke", "operator": null, "amenity": "pharmacy" }, "geometry": { "type": "Point", "coordinates": [ 13.4612497, 52.5088216 ] } },
{ "type": "Feature", "properties": { "element": "node", "id": 332555440, "name": "Apotheke am Ostkreuz", "operator": null, "amenity": "pharmacy" }, "geometry": { "type": "Point", "coordinates": [ 13.4658756, 52.5062364 ] } },
{ "type": "Feature", "properties": { "element": "node", "id": 332961993, "name": "Apotheke am Nauener Platz", "operator": null, "amenity": "pharmacy" }, "geometry": { "type": "Point", "coordinates": [ 13.3669194, 52.551654 ] } },
{ "type": "Feature", "properties": { "element": "node", "id": 332964520, "name": "Dr. Gropler´s Apotheke", "operator": null, "amenity": "pharmacy" }, "geometry": { "type": "Point", "coordinates": [ 13.3686632, 52.5498675 ] } },
{ "type": "Feature", "properties": { "element": "node", "id": 333408605, "name": "Werbellin-Apotheke", "operator": null, "amenity": "pharmacy" }, "geometry": { "type": "Point", "coordinates": [ 13.4258598, 52.4776537 ] } },
{ "type": "Feature", "properties": { "element": "node", "id": 333410692, "name": "Apotheke am Herrfurthplatz", "operator": null, "amenity": "pharmacy" }, "geometry": { "type": "Point", "coordinates": [ 13.4229686, 52.4773102 ] } },
{ "type": "Feature", "properties": { "element": "node", "id": 333909847, "name": "Driesener Apotheke", "operator": null, "amenity": "pharmacy" }, "geometry": { "type": "Point", "coordinates": [ 13.4058278, 52.5528911 ] } },
{ "type": "Feature", "properties": { "element": "node", "id": 336117214, "name": "Grüne Apotheke 62", "operator": null, "amenity": "pharmacy" }, "geometry": { "type": "Point", "coordinates": [ 13.3063256, 52.507096 ] } },
{ "type": "Feature", "properties": { "element": "node", "id": 340129941, "name": "Apotheke Carmer-7", "operator": "Bettina Moeglich", "amenity": "pharmacy" }, "geometry": { "type": "Point", "coordinates": [ 13.3234474, 52.5068886 ] } },
{ "type": "Feature", "properties": { "element": "node", "id": 343784476, "name": "Fasanen-Apotheke", "operator": null, "amenity": "pharmacy" }, "geometry": { "type": "Point", "coordinates": [ 13.5712888, 52.5433846 ] } },
{ "type": "Feature", "properties": { "element": "node", "id": 347298415, "name": "Seydlitz-Apotheke", "operator": null, "amenity": "pharmacy" }, "geometry": { "type": "Point", "coordinates": [ 13.3373088, 52.4316877 ] } },
{ "type": "Feature", "properties": { "element": "node", "id": 347422942, "name": "Eichen Apotheke", "operator": null, "amenity": "pharmacy" }, "geometry": { "type": "Point", "coordinates": [ 13.2986338, 52.4415204 ] } },
{ "type": "Feature", "properties": { "element": "node", "id": 348052909, "name": "Augusta-Apotheke am Mexikoplatz", "operator": null, "amenity": "pharmacy" }, "geometry": { "type": "Point", "coordinates": [ 13.233166, 52.4380311 ] } },
{ "type": "Feature", "properties": { "element": "node", "id": 349301668, "name": "Leibniz Apotheke Berlin", "operator": null, "amenity": "pharmacy" }, "geometry": { "type": "Point", "coordinates": [ 13.3140939, 52.5060889 ] } },
{ "type": "Feature", "properties": { "element": "node", "id": 352983796, "name": "Kronen Apotheke", "operator": null, "amenity": "pharmacy" }, "geometry": { "type": "Point", "coordinates": [ 13.3238828, 52.4544874 ] } },
{ "type": "Feature", "properties": { "element": "node", "id": 353744167, "name": "Apotheke am Flughafen", "operator": null, "amenity": "pharmacy" }, "geometry": { "type": "Point", "coordinates": [ 13.3847889, 52.4845367 ] } },
{ "type": "Feature", "properties": { "element": "node", "id": 356807869, "name": "Arcaden Apotheke", "operator": null, "amenity": "pharmacy" }, "geometry": { "type": "Point", "coordinates": [ 13.4153133, 52.5495274 ] } },
{ "type": "Feature", "properties": { "element": "node", "id": 366186442, "name": "Hutten-Apotheke", "operator": null, "amenity": "pharmacy" }, "geometry": { "type": "Point", "coordinates": [ 13.3302792, 52.5270388 ] } },
{ "type": "Feature", "properties": { "element": "node", "id": 366536622, "name": "Jagow-Apotheke", "operator": null, "amenity": "pharmacy" }, "geometry": { "type": "Point", "coordinates": [ 13.3343198, 52.5242051 ] } },
{ "type": "Feature", "properties": { "element": "node", "id": 371157962, "name": "Gethsemane-Apotheke", "operator": null, "amenity": "pharmacy" }, "geometry": { "type": "Point", "coordinates": [ 13.4146196, 52.547683 ] } },
{ "type": "Feature", "properties": { "element": "node", "id": 380498298, "name": "Dorotheenstadt Apotheke", "operator": "Ulrike Uhlig", "amenity": "pharmacy" }, "geometry": { "type": "Point", "coordinates": [ 13.3879579, 52.5185603 ] } },
{ "type": "Feature", "properties": { "element": "node", "id": 380498345, "name": "MediosApotheke", "operator": null, "amenity": "pharmacy" }, "geometry": { "type": "Point", "coordinates": [ 13.3794578, 52.5247199 ] } },
{ "type": "Feature", "properties": { "element": "node", "id": 387491865, "name": "Wilhelminenhof Apotheke", "operator": null, "amenity": "pharmacy" }, "geometry": { "type": "Point", "coordinates": [ 13.5255932, 52.4590312 ] } },
{ "type": "Feature", "properties": { "element": "node", "id": 393409421, "name": "easyApotheke", "operator": null, "amenity": "pharmacy" }, "geometry": { "type": "Point", "coordinates": [ 13.2927797, 52.4977192 ] } },
{ "type": "Feature", "properties": { "element": "node", "id": 393409422, "name": "Sky Apotheke am Kudamm", "operator": null, "amenity": "pharmacy" }, "geometry": { "type": "Point", "coordinates": [ 13.2956562, 52.4976209 ] } },
{ "type": "Feature", "properties": { "element": "node", "id": 399348493, "name": "Elsen-Apotheke", "operator": null, "amenity": "pharmacy" }, "geometry": { "type": "Point", "coordinates": [ 13.4953236, 52.5047368 ] } },
{ "type": "Feature", "properties": { "element": "node", "id": 400912055, "name": "Apotheke am Hugenottenplatz", "operator": null, "amenity": "pharmacy" }, "geometry": { "type": "Point", "coordinates": [ 13.4199092, 52.6066817 ] } },
{ "type": "Feature", "properties": { "element": "node", "id": 409760015, "name": "Apotheke am Hochmeisterplatz", "operator": null, "amenity": "pharmacy" }, "geometry": { "type": "Point", "coordinates": [ 13.2976849, 52.4957099 ] } },
{ "type": "Feature", "properties": { "element": "node", "id": 409775548, "name": "Engel Apotheke", "operator": "Nico Hauffe e.K.", "amenity": "pharmacy" }, "geometry": { "type": "Point", "coordinates": [ 13.2069484, 52.5618492 ] } },
{ "type": "Feature", "properties": { "element": "node", "id": 409925337, "name": "Polimedica-Apotheke", "operator": "Heike Gebauer e.K.", "amenity": "pharmacy" }, "geometry": { "type": "Point", "coordinates": [ 13.5582606, 52.5053398 ] } },
{ "type": "Feature", "properties": { "element": "node", "id": 409925350, "name": "Apotheke im Gesundheitsforum Köpenick", "operator": "Dr. Ulrike Timm e.K.", "amenity": "pharmacy" }, "geometry": { "type": "Point", "coordinates": [ 13.5795409, 52.4592786 ] } },
{ "type": "Feature", "properties": { "element": "node", "id": 410135921, "name": "Reichenberger Apotheke", "operator": null, "amenity": "pharmacy" }, "geometry": { "type": "Point", "coordinates": [ 13.4356179, 52.4941966 ] } },
{ "type": "Feature", "properties": { "element": "node", "id": 410499179, "name": "Blumberger Apotheke", "operator": null, "amenity": "pharmacy" }, "geometry": { "type": "Point", "coordinates": [ 13.5770672, 52.5495695 ] } },
{ "type": "Feature", "properties": { "element": "node", "id": 411273144, "name": "Askanier Apotheke", "operator": null, "amenity": "pharmacy" }, "geometry": { "type": "Point", "coordinates": [ 13.2082963, 52.5576682 ] } },
{ "type": "Feature", "properties": { "element": "node", "id": 411273455, "name": "Hakenfelder Apotheke", "operator": null, "amenity": "pharmacy" }, "geometry": { "type": "Point", "coordinates": [ 13.2088093, 52.5621448 ] } },
{ "type": "Feature", "properties": { "element": "node", "id": 412408145, "name": "Kaiser Wilhelm Apotheke", "operator": null, "amenity": "pharmacy" }, "geometry": { "type": "Point", "coordinates": [ 13.3566766, 52.4860593 ] } },
{ "type": "Feature", "properties": { "element": "node", "id": 415318053, "name": "Apotheke am Helmholtzplatz", "operator": null, "amenity": "pharmacy" }, "geometry": { "type": "Point", "coordinates": [ 13.4200711, 52.5420046 ] } },
{ "type": "Feature", "properties": { "element": "node", "id": 416660118, "name": "Apotheke an der Oper", "operator": "Karsten Kiepert", "amenity": "pharmacy" }, "geometry": { "type": "Point", "coordinates": [ 13.3083188, 52.5114912 ] } },
{ "type": "Feature", "properties": { "element": "node", "id": 416660134, "name": "Minerva-Apotheke", "operator": "Farhad Rasta", "amenity": "pharmacy" }, "geometry": { "type": "Point", "coordinates": [ 13.3055221, 52.5111671 ] } },
{ "type": "Feature", "properties": { "element": "node", "id": 416660138, "name": "Bong-Apotheke", "operator": "Thomas Bong e. K.", "amenity": "pharmacy" }, "geometry": { "type": "Point", "coordinates": [ 13.3054736, 52.5096216 ] } },
{ "type": "Feature", "properties": { "element": "node", "id": 416660142, "name": "Goethe Apotheke", "operator": "Sigrun Klemp", "amenity": "pharmacy" }, "geometry": { "type": "Point", "coordinates": [ 13.3067193, 52.5090254 ] } },
{ "type": "Feature", "properties": { "element": "node", "id": 419545768, "name": "Herz Apotheke", "operator": "Ihsan Vurankaya", "amenity": "pharmacy" }, "geometry": { "type": "Point", "coordinates": [ 13.3827993, 52.55144 ] } },
{ "type": "Feature", "properties": { "element": "node", "id": 427670055, "name": "Aponeo", "operator": "Konstantin Primbas e.K.", "amenity": "pharmacy" }, "geometry": { "type": "Point", "coordinates": [ 13.4967682, 52.5120353 ] } },
{ "type": "Feature", "properties": { "element": "node", "id": 428114271, "name": "Central-Apotheke", "operator": "Judit Gottwald", "amenity": "pharmacy" }, "geometry": { "type": "Point", "coordinates": [ 13.3156473, 52.4414214 ] } },
{ "type": "Feature", "properties": { "element": "node", "id": 428114289, "name": "Laurentius-Apotheke", "operator": null, "amenity": "pharmacy" }, "geometry": { "type": "Point", "coordinates": [ 13.3150432, 52.4476658 ] } },
{ "type": "Feature", "properties": { "element": "node", "id": 428293745, "name": "Apotheke am Mierendorffplatz", "operator": null, "amenity": "pharmacy" }, "geometry": { "type": "Point", "coordinates": [ 13.3050256, 52.5255288 ] } },
{ "type": "Feature", "properties": { "element": "node", "id": 438089365, "name": "Apotheke im Storchenhof", "operator": null, "amenity": "pharmacy" }, "geometry": { "type": "Point", "coordinates": [ 13.5040553, 52.548636 ] } },
{ "type": "Feature", "properties": { "element": "node", "id": 438098504, "name": "Euro-Apotheke", "operator": null, "amenity": "pharmacy" }, "geometry": { "type": "Point", "coordinates": [ 13.441201, 52.4706903 ] } },
{ "type": "Feature", "properties": { "element": "node", "id": 439234903, "name": "Kristinen-Apotheke", "operator": null, "amenity": "pharmacy" }, "geometry": { "type": "Point", "coordinates": [ 13.624489, 52.4512997 ] } },
{ "type": "Feature", "properties": { "element": "node", "id": 439234905, "name": "Anker-Apotheke", "operator": null, "amenity": "pharmacy" }, "geometry": { "type": "Point", "coordinates": [ 13.6249106, 52.4503297 ] } },
{ "type": "Feature", "properties": { "element": "node", "id": 440322354, "name": "Apotheke am Mehringplatz", "operator": null, "amenity": "pharmacy" }, "geometry": { "type": "Point", "coordinates": [ 13.3912545, 52.499708 ] } },
{ "type": "Feature", "properties": { "element": "node", "id": 440330654, "name": "Dafne Apotheke", "operator": null, "amenity": "pharmacy" }, "geometry": { "type": "Point", "coordinates": [ 13.4363242, 52.480346 ] } },
{ "type": "Feature", "properties": { "element": "node", "id": 440332220, "name": "Neukölln-Apotheke", "operator": null, "amenity": "pharmacy" }, "geometry": { "type": "Point", "coordinates": [ 13.435211, 52.4806677 ] } },
{ "type": "Feature", "properties": { "element": "node", "id": 440333191, "name": "Forum Apotheke", "operator": null, "amenity": "pharmacy" }, "geometry": { "type": "Point", "coordinates": [ 13.4341084, 52.4814172 ] } },
{ "type": "Feature", "properties": { "element": "node", "id": 440335563, "name": "Libertas Apotheke", "operator": null, "amenity": "pharmacy" }, "geometry": { "type": "Point", "coordinates": [ 13.4266376, 52.4850824 ] } },
{ "type": "Feature", "properties": { "element": "node", "id": 440338666, "name": "Wilhelm Busch Apotheke", "operator": "Petra Lorenz", "amenity": "pharmacy" }, "geometry": { "type": "Point", "coordinates": [ 13.4384935, 52.4773129 ] } },
{ "type": "Feature", "properties": { "element": "node", "id": 440340785, "name": "Bären Apotheke", "operator": null, "amenity": "pharmacy" }, "geometry": { "type": "Point", "coordinates": [ 13.4405484, 52.4734058 ] } },
{ "type": "Feature", "properties": { "element": "node", "id": 441512663, "name": "Ulrich-Apotheke", "operator": null, "amenity": "pharmacy" }, "geometry": { "type": "Point", "coordinates": [ 13.4265886, 52.4759595 ] } },
{ "type": "Feature", "properties": { "element": "node", "id": 441514950, "name": "Arminius Apotheke", "operator": null, "amenity": "pharmacy" }, "geometry": { "type": "Point", "coordinates": [ 13.4257606, 52.4794042 ] } },
{ "type": "Feature", "properties": { "element": "node", "id": 441878984, "name": "Sonnenblumen Apotheke", "operator": null, "amenity": "pharmacy" }, "geometry": { "type": "Point", "coordinates": [ 13.4631867, 52.4699293 ] } },
{ "type": "Feature", "properties": { "element": "node", "id": 441878991, "name": "Hindenburg-Apotheke", "operator": "Laia Saatkari", "amenity": "pharmacy" }, "geometry": { "type": "Point", "coordinates": [ 13.4496732, 52.4740953 ] } },
{ "type": "Feature", "properties": { "element": "node", "id": 442351144, "name": "Pelikan Apotheke", "operator": null, "amenity": "pharmacy" }, "geometry": { "type": "Point", "coordinates": [ 13.3859911, 52.4669292 ] } },
{ "type": "Feature", "properties": { "element": "node", "id": 442390303, "name": "Hafen-Apotheke", "operator": null, "amenity": "pharmacy" }, "geometry": { "type": "Point", "coordinates": [ 13.3844542, 52.4568204 ] } },
{ "type": "Feature", "properties": { "element": "node", "id": 442393071, "name": "Fortunatus Apotheke", "operator": null, "amenity": "pharmacy" }, "geometry": { "type": "Point", "coordinates": [ 13.3852622, 52.4466168 ] } },
{ "type": "Feature", "properties": { "element": "node", "id": 442394335, "name": "Akazien Apotheke", "operator": null, "amenity": "pharmacy" }, "geometry": { "type": "Point", "coordinates": [ 13.385909, 52.4461252 ] } },
{ "type": "Feature", "properties": { "element": "node", "id": 442394341, "name": "Markt Apotheke", "operator": null, "amenity": "pharmacy" }, "geometry": { "type": "Point", "coordinates": [ 13.3856432, 52.4451968 ] } },
{ "type": "Feature", "properties": { "element": "node", "id": 442705525, "name": "Hermann Apotheke", "operator": null, "amenity": "pharmacy" }, "geometry": { "type": "Point", "coordinates": [ 13.4316536, 52.4665033 ] } },
{ "type": "Feature", "properties": { "element": "node", "id": 443464250, "name": "Glasow-Apotheke", "operator": "Ralf Katzur", "amenity": "pharmacy" }, "geometry": { "type": "Point", "coordinates": [ 13.4336361, 52.4639518 ] } },
{ "type": "Feature", "properties": { "element": "node", "id": 443604961, "name": "Apotheke zum Goldenen Einhorn", "operator": null, "amenity": "pharmacy" }, "geometry": { "type": "Point", "coordinates": [ 13.3942991, 52.4919031 ] } },
{ "type": "Feature", "properties": { "element": "node", "id": 445821371, "name": "Orchideen-Apotheke", "operator": null, "amenity": "pharmacy" }, "geometry": { "type": "Point", "coordinates": [ 13.4372988, 52.4564405 ] } },
{ "type": "Feature", "properties": { "element": "node", "id": 445821378, "name": "Luisen-Apotheke", "operator": null, "amenity": "pharmacy" }, "geometry": { "type": "Point", "coordinates": [ 13.438621, 52.4533259 ] } },
{ "type": "Feature", "properties": { "element": "node", "id": 446759637, "name": "Brillant Apotheke", "operator": null, "amenity": "pharmacy" }, "geometry": { "type": "Point", "coordinates": [ 13.3065427, 52.5001376 ] } },
{ "type": "Feature", "properties": { "element": "node", "id": 448591443, "name": "Palmen-Apotheke", "operator": "Christiane Koch", "amenity": "pharmacy" }, "geometry": { "type": "Point", "coordinates": [ 13.4448618, 52.4997229 ] } },
{ "type": "Feature", "properties": { "element": "node", "id": 448811294, "name": "Pasteur-Apotheke", "operator": null, "amenity": "pharmacy" }, "geometry": { "type": "Point", "coordinates": [ 13.4235773, 52.4901283 ] } },
{ "type": "Feature", "properties": { "element": "node", "id": 448913486, "name": "Cecilien-Apotheke", "operator": null, "amenity": "pharmacy" }, "geometry": { "type": "Point", "coordinates": [ 13.4126429, 52.546825 ] } },
{ "type": "Feature", "properties": { "element": "node", "id": 448915579, "name": "Arminius-Apotheke", "operator": null, "amenity": "pharmacy" }, "geometry": { "type": "Point", "coordinates": [ 13.4122894, 52.5329218 ] } },
{ "type": "Feature", "properties": { "element": "node", "id": 452946886, "name": "Koala-Apotheke", "operator": null, "amenity": "pharmacy" }, "geometry": { "type": "Point", "coordinates": [ 13.4743188, 52.5359237 ] } },
{ "type": "Feature", "properties": { "element": "node", "id": 452951395, "name": "Krumme Lanke Apotheke", "operator": "Michaela Kretzschmar", "amenity": "pharmacy" }, "geometry": { "type": "Point", "coordinates": [ 13.2408947, 52.4421581 ] } },
{ "type": "Feature", "properties": { "element": "node", "id": 453013649, "name": "Apotheke am Fennpfuhl", "operator": null, "amenity": "pharmacy" }, "geometry": { "type": "Point", "coordinates": [ 13.4679731, 52.5280106 ] } },
{ "type": "Feature", "properties": { "element": "node", "id": 454167250, "name": "Bartels Apotheke", "operator": null, "amenity": "pharmacy" }, "geometry": { "type": "Point", "coordinates": [ 13.413785, 52.558703 ] } },
{ "type": "Feature", "properties": { "element": "node", "id": 454216844, "name": "Koala Apotheke", "operator": null, "amenity": "pharmacy" }, "geometry": { "type": "Point", "coordinates": [ 13.4033014, 52.569669 ] } },
{ "type": "Feature", "properties": { "element": "node", "id": 454234943, "name": "Rusche-Apotheke", "operator": "Ursula Stübner", "amenity": "pharmacy" }, "geometry": { "type": "Point", "coordinates": [ 13.4853643, 52.5152094 ] } },
{ "type": "Feature", "properties": { "element": "node", "id": 456388989, "name": "Sterndamm-Apotheke", "operator": "Alexander Rogowski e.K.", "amenity": "pharmacy" }, "geometry": { "type": "Point", "coordinates": [ 13.5094857, 52.452556 ] } },
{ "type": "Feature", "properties": { "element": "node", "id": 456389100, "name": "Apotheke Johannisthal", "operator": null, "amenity": "pharmacy" }, "geometry": { "type": "Point", "coordinates": [ 13.5060772, 52.4458331 ] } },
{ "type": "Feature", "properties": { "element": "node", "id": 456414245, "name": "Pfauen-Apotheke", "operator": null, "amenity": "pharmacy" }, "geometry": { "type": "Point", "coordinates": [ 13.4588411, 52.4412581 ] } },
{ "type": "Feature", "properties": { "element": "node", "id": 456421034, "name": "Fontane-Apotheke", "operator": null, "amenity": "pharmacy" }, "geometry": { "type": "Point", "coordinates": [ 13.4568396, 52.4426146 ] } },
{ "type": "Feature", "properties": { "element": "node", "id": 458915641, "name": "Adler Apotheke", "operator": null, "amenity": "pharmacy" }, "geometry": { "type": "Point", "coordinates": [ 13.4103966, 52.5707966 ] } },
{ "type": "Feature", "properties": { "element": "node", "id": 459166572, "name": "Zieten Apotheke", "operator": null, "amenity": "pharmacy" }, "geometry": { "type": "Point", "coordinates": [ 13.3686333, 52.5449696 ] } },
{ "type": "Feature", "properties": { "element": "node", "id": 459650830, "name": "Easy Apotheke", "operator": null, "amenity": "pharmacy" }, "geometry": { "type": "Point", "coordinates": [ 13.4234937, 52.491228 ] } },
{ "type": "Feature", "properties": { "element": "node", "id": 459653935, "name": "Paul-Lincke-Apotheke", "operator": "Johannes Harter", "amenity": "pharmacy" }, "geometry": { "type": "Point", "coordinates": [ 13.4199367, 52.4966636 ] } },
{ "type": "Feature", "properties": { "element": "node", "id": 459673262, "name": "Lavendel Apotheke", "operator": null, "amenity": "pharmacy" }, "geometry": { "type": "Point", "coordinates": [ 13.4045453, 52.5816372 ] } },
{ "type": "Feature", "properties": { "element": "node", "id": 459785177, "name": "Steinbock-Apotheke", "operator": null, "amenity": "pharmacy" }, "geometry": { "type": "Point", "coordinates": [ 13.3354795, 52.5595433 ] } },
{ "type": "Feature", "properties": { "element": "node", "id": 459799715, "name": "Müller-Apotheke", "operator": null, "amenity": "pharmacy" }, "geometry": { "type": "Point", "coordinates": [ 13.3608309, 52.545171 ] } },
{ "type": "Feature", "properties": { "element": "node", "id": 460523245, "name": "Hohenzollern-Apotheke", "operator": "H.W. Kopsch", "amenity": "pharmacy" }, "geometry": { "type": "Point", "coordinates": [ 13.1973279, 52.5241148 ] } },
{ "type": "Feature", "properties": { "element": "node", "id": 461626277, "name": "Europa Apotheke", "operator": "Katrin Peter e. K.", "amenity": "pharmacy" }, "geometry": { "type": "Point", "coordinates": [ 13.4406999, 52.5164022 ] } },
{ "type": "Feature", "properties": { "element": "node", "id": 472371488, "name": "VivApotheke in Hellersdorf", "operator": null, "amenity": "pharmacy" }, "geometry": { "type": "Point", "coordinates": [ 13.603422, 52.5365149 ] } },
{ "type": "Feature", "properties": { "element": "node", "id": 475236781, "name": "Tasmania Apotheke", "operator": null, "amenity": "pharmacy" }, "geometry": { "type": "Point", "coordinates": [ 13.4305501, 52.468338 ] } },
{ "type": "Feature", "properties": { "element": "node", "id": 476243460, "name": "Luna Apotheke", "operator": null, "amenity": "pharmacy" }, "geometry": { "type": "Point", "coordinates": [ 13.4660642, 52.4857173 ] } },
{ "type": "Feature", "properties": { "element": "node", "id": 482797544, "name": "Sabelus XXL Apotheke", "operator": null, "amenity": "pharmacy" }, "geometry": { "type": "Point", "coordinates": [ 13.5617695, 52.4010732 ] } },
{ "type": "Feature", "properties": { "element": "node", "id": 499046359, "name": "Kastanien-Apotheke Pankow", "operator": null, "amenity": "pharmacy" }, "geometry": { "type": "Point", "coordinates": [ 13.3830878, 52.5920493 ] } },
{ "type": "Feature", "properties": { "element": "node", "id": 499963012, "name": "Stolpe-Apotheke", "operator": "Bianca Dabbagh e.K.", "amenity": "pharmacy" }, "geometry": { "type": "Point", "coordinates": [ 13.1456517, 52.4157499 ] } },
{ "type": "Feature", "properties": { "element": "node", "id": 502409526, "name": "Baumschulen-Apotheke", "operator": null, "amenity": "pharmacy" }, "geometry": { "type": "Point", "coordinates": [ 13.4857268, 52.4642316 ] } },
{ "type": "Feature", "properties": { "element": "node", "id": 505990860, "name": "Rathaus Apotheke", "operator": null, "amenity": "pharmacy" }, "geometry": { "type": "Point", "coordinates": [ 13.3835242, 52.4943559 ] } },
{ "type": "Feature", "properties": { "element": "node", "id": 506338850, "name": "farma-plus", "operator": null, "amenity": "pharmacy" }, "geometry": { "type": "Point", "coordinates": [ 13.4350711, 52.46018 ] } },
{ "type": "Feature", "properties": { "element": "node", "id": 508423804, "name": "hagen apotheke", "operator": null, "amenity": "pharmacy" }, "geometry": { "type": "Point", "coordinates": [ 13.2811924, 52.4773766 ] } },
{ "type": "Feature", "properties": { "element": "node", "id": 510624102, "name": "Albrecht-Apotheke", "operator": "Heike Borchardt", "amenity": "pharmacy" }, "geometry": { "type": "Point", "coordinates": [ 13.38514, 52.4609874 ] } },
{ "type": "Feature", "properties": { "element": "node", "id": 516609077, "name": "Gorki-Apotheke", "operator": null, "amenity": "pharmacy" }, "geometry": { "type": "Point", "coordinates": [ 13.2842663, 52.5898484 ] } },
{ "type": "Feature", "properties": { "element": "node", "id": 518011179, "name": "Adler-Apotheke", "operator": null, "amenity": "pharmacy" }, "geometry": { "type": "Point", "coordinates": [ 13.2860212, 52.5876355 ] } },
{ "type": "Feature", "properties": { "element": "node", "id": 520518100, "name": "Opernviertel-Apotheke", "operator": null, "amenity": "pharmacy" }, "geometry": { "type": "Point", "coordinates": [ 13.3105177, 52.5120981 ] } },
{ "type": "Feature", "properties": { "element": "node", "id": 527503229, "name": "Sankt Rochus Apotheke", "operator": null, "amenity": "pharmacy" }, "geometry": { "type": "Point", "coordinates": [ 13.3071455, 52.4728776 ] } },
{ "type": "Feature", "properties": { "element": "node", "id": 527503232, "name": "Rheinland Apotheke", "operator": null, "amenity": "pharmacy" }, "geometry": { "type": "Point", "coordinates": [ 13.3146216, 52.4745711 ] } },
{ "type": "Feature", "properties": { "element": "node", "id": 527873296, "name": "Normannen-Apotheke", "operator": null, "amenity": "pharmacy" }, "geometry": { "type": "Point", "coordinates": [ 13.5403651, 52.4195999 ] } },
{ "type": "Feature", "properties": { "element": "node", "id": 528643412, "name": "Elefanten Apotheke", "operator": null, "amenity": "pharmacy" }, "geometry": { "type": "Point", "coordinates": [ 13.5276421, 52.4247473 ] } },
{ "type": "Feature", "properties": { "element": "node", "id": 529805424, "name": "Europa-Apotheke", "operator": null, "amenity": "pharmacy" }, "geometry": { "type": "Point", "coordinates": [ 13.5089986, 52.4565863 ] } },
{ "type": "Feature", "properties": { "element": "node", "id": 530687969, "name": "Sano Apotheke", "operator": "Sonja Dittrich", "amenity": "pharmacy" }, "geometry": { "type": "Point", "coordinates": [ 13.5758981, 52.4473124 ] } },
{ "type": "Feature", "properties": { "element": "node", "id": 534879643, "name": "Hohenzollerndamm Apotheke", "operator": "Dr. Martin Krause", "amenity": "pharmacy" }, "geometry": { "type": "Point", "coordinates": [ 13.2975626, 52.4866689 ] } },
{ "type": "Feature", "properties": { "element": "node", "id": 538057637, "name": "Apotheke im Forum Köpenick", "operator": "Nicola Runge e.K.", "amenity": "pharmacy" }, "geometry": { "type": "Point", "coordinates": [ 13.5786266, 52.4581201 ] } },
{ "type": "Feature", "properties": { "element": "node", "id": 564123162, "name": "Nibelungen-Apotheke", "operator": null, "amenity": "pharmacy" }, "geometry": { "type": "Point", "coordinates": [ 13.496335, 52.5181103 ] } },
{ "type": "Feature", "properties": { "element": "node", "id": 565034853, "name": "Columbia Apotheke", "operator": null, "amenity": "pharmacy" }, "geometry": { "type": "Point", "coordinates": [ 13.288557, 52.5106646 ] } },
{ "type": "Feature", "properties": { "element": "node", "id": 571800623, "name": "St. Hubertus", "operator": null, "amenity": "pharmacy" }, "geometry": { "type": "Point", "coordinates": [ 13.3702571, 52.4215579 ] } },
{ "type": "Feature", "properties": { "element": "node", "id": 573452398, "name": "Apotheke in der Volkradstraße", "operator": null, "amenity": "pharmacy" }, "geometry": { "type": "Point", "coordinates": [ 13.5073798, 52.499528 ] } },
{ "type": "Feature", "properties": { "element": "node", "id": 576608994, "name": "Apotheke im Gesundbrunnen-Center", "operator": null, "amenity": "pharmacy" }, "geometry": { "type": "Point", "coordinates": [ 13.3891501, 52.5499687 ] } },
{ "type": "Feature", "properties": { "element": "node", "id": 581322478, "name": "Brunnen Apotheke", "operator": null, "amenity": "pharmacy" }, "geometry": { "type": "Point", "coordinates": [ 13.3855631, 52.5503414 ] } },
{ "type": "Feature", "properties": { "element": "node", "id": 582854286, "name": "Ursus-Apotheke", "operator": null, "amenity": "pharmacy" }, "geometry": { "type": "Point", "coordinates": [ 13.3684082, 52.4193408 ] } },
{ "type": "Feature", "properties": { "element": "node", "id": 585143218, "name": "Schwarze Adler Apotheke", "operator": null, "amenity": "pharmacy" }, "geometry": { "type": "Point", "coordinates": [ 13.3954661, 52.386944 ] } },
{ "type": "Feature", "properties": { "element": "node", "id": 585144206, "name": "Bahnhof-Apotheke", "operator": null, "amenity": "pharmacy" }, "geometry": { "type": "Point", "coordinates": [ 13.3997371, 52.3868901 ] } },
{ "type": "Feature", "properties": { "element": "node", "id": 585473264, "name": "Lessing Apotheke", "operator": null, "amenity": "pharmacy" }, "geometry": { "type": "Point", "coordinates": [ 13.3701655, 52.5420876 ] } },
{ "type": "Feature", "properties": { "element": "node", "id": 588141093, "name": "Linden Apotheke", "operator": null, "amenity": "pharmacy" }, "geometry": { "type": "Point", "coordinates": [ 13.404185, 52.3865399 ] } },
{ "type": "Feature", "properties": { "element": "node", "id": 588552725, "name": "Katharinen Apotheke", "operator": null, "amenity": "pharmacy" }, "geometry": { "type": "Point", "coordinates": [ 13.4553976, 52.5494413 ] } },
{ "type": "Feature", "properties": { "element": "node", "id": 588552733, "name": "Medicus Apotheke", "operator": null, "amenity": "pharmacy" }, "geometry": { "type": "Point", "coordinates": [ 13.4562626, 52.5492679 ] } },
{ "type": "Feature", "properties": { "element": "node", "id": 588557536, "name": "Apotheke am Antonplatz", "operator": null, "amenity": "pharmacy" }, "geometry": { "type": "Point", "coordinates": [ 13.4506766, 52.5487495 ] } },
{ "type": "Feature", "properties": { "element": "node", "id": 592122156, "name": "Schlachtensee Apotheke", "operator": "Dr. Jutta Wenger", "amenity": "pharmacy" }, "geometry": { "type": "Point", "coordinates": [ 13.2155816, 52.4386509 ] } },
{ "type": "Feature", "properties": { "element": "node", "id": 593781884, "name": "Lankwitz-Apotheke", "operator": null, "amenity": "pharmacy" }, "geometry": { "type": "Point", "coordinates": [ 13.3437222, 52.4352813 ] } },
{ "type": "Feature", "properties": { "element": "node", "id": 595536654, "name": "MediosApotheke Hackescher Markt", "operator": null, "amenity": "pharmacy" }, "geometry": { "type": "Point", "coordinates": [ 13.4032424, 52.5245938 ] } },
{ "type": "Feature", "properties": { "element": "node", "id": 602531459, "name": "Wedding Apotheke", "operator": "Dr. Axel Müller-de Ahna e.K.", "amenity": "pharmacy" }, "geometry": { "type": "Point", "coordinates": [ 13.353572, 52.5492948 ] } },
{ "type": "Feature", "properties": { "element": "node", "id": 604938266, "name": "Apotheke im Karstadt", "operator": null, "amenity": "pharmacy" }, "geometry": { "type": "Point", "coordinates": [ 13.4238942, 52.4874834 ] } },
{ "type": "Feature", "properties": { "element": "node", "id": 608524481, "name": "Prenz’l-Apotheke", "operator": null, "amenity": "pharmacy" }, "geometry": { "type": "Point", "coordinates": [ 13.4142615, 52.550241 ] } },
{ "type": "Feature", "properties": { "element": "node", "id": 609142032, "name": "Elch Apotheke", "operator": null, "amenity": "pharmacy" }, "geometry": { "type": "Point", "coordinates": [ 13.4536256, 52.4292565 ] } },
{ "type": "Feature", "properties": { "element": "node", "id": 609146610, "name": "Gropius-Apotheke", "operator": null, "amenity": "pharmacy" }, "geometry": { "type": "Point", "coordinates": [ 13.4570794, 52.42958 ] } },
{ "type": "Feature", "properties": { "element": "node", "id": 610199208, "name": "Tempelritter-Apotheke", "operator": null, "amenity": "pharmacy" }, "geometry": { "type": "Point", "coordinates": [ 13.4066989, 52.3865161 ] } },
{ "type": "Feature", "properties": { "element": "node", "id": 616284712, "name": "Apotheke am Rathaus", "operator": "Sliman Dirki", "amenity": "pharmacy" }, "geometry": { "type": "Point", "coordinates": [ 13.4787925, 52.5161624 ] } },
{ "type": "Feature", "properties": { "element": "node", "id": 621584928, "name": "Gerhart-Hauptmann-Apotheke", "operator": null, "amenity": "pharmacy" }, "geometry": { "type": "Point", "coordinates": [ 13.4477689, 52.4373715 ] } },
{ "type": "Feature", "properties": { "element": "node", "id": 627415668, "name": "Gesundbrunnen- Apotheke", "operator": null, "amenity": "pharmacy" }, "geometry": { "type": "Point", "coordinates": [ 13.3842488, 52.55057 ] } },
{ "type": "Feature", "properties": { "element": "node", "id": 630214264, "name": "Apotheke an der Rhinstraße", "operator": null, "amenity": "pharmacy" }, "geometry": { "type": "Point", "coordinates": [ 13.5179566, 52.5136166 ] } },
{ "type": "Feature", "properties": { "element": "node", "id": 630214267, "name": "Bahnhof-Apotheke", "operator": null, "amenity": "pharmacy" }, "geometry": { "type": "Point", "coordinates": [ 13.5198414, 52.5137587 ] } },
{ "type": "Feature", "properties": { "element": "node", "id": 631755396, "name": "Elch-Apotheke", "operator": null, "amenity": "pharmacy" }, "geometry": { "type": "Point", "coordinates": [ 13.2887685, 52.6331147 ] } },
{ "type": "Feature", "properties": { "element": "node", "id": 635821864, "name": "Pantherapotheke", "operator": null, "amenity": "pharmacy" }, "geometry": { "type": "Point", "coordinates": [ 13.3208889, 52.412393 ] } },
{ "type": "Feature", "properties": { "element": "node", "id": 636005023, "name": "Rathaus-Apotheke Schmargendorf", "operator": null, "amenity": "pharmacy" }, "geometry": { "type": "Point", "coordinates": [ 13.288994, 52.4767049 ] } },
{ "type": "Feature", "properties": { "element": "node", "id": 638953355, "name": "Weitling-Apotheke", "operator": null, "amenity": "pharmacy" }, "geometry": { "type": "Point", "coordinates": [ 13.4957547, 52.5060983 ] } },
{ "type": "Feature", "properties": { "element": "node", "id": 644658975, "name": "Jülicher Apotheke", "operator": null, "amenity": "pharmacy" }, "geometry": { "type": "Point", "coordinates": [ 13.3923404, 52.5539606 ] } },
{ "type": "Feature", "properties": { "element": "node", "id": 645677466, "name": "die Neue Apotheke", "operator": null, "amenity": "pharmacy" }, "geometry": { "type": "Point", "coordinates": [ 13.3357313, 52.5265328 ] } },
{ "type": "Feature", "properties": { "element": "node", "id": 645677469, "name": "Arminius Apotheke", "operator": null, "amenity": "pharmacy" }, "geometry": { "type": "Point", "coordinates": [ 13.3365504, 52.5268142 ] } },
{ "type": "Feature", "properties": { "element": "node", "id": 646579859, "name": "Ansbacher Apotheke", "operator": null, "amenity": "pharmacy" }, "geometry": { "type": "Point", "coordinates": [ 13.3429298, 52.5034922 ] } },
{ "type": "Feature", "properties": { "element": "node", "id": 647943536, "name": "Hubertus Apotheke am Salzufer", "operator": null, "amenity": "pharmacy" }, "geometry": { "type": "Point", "coordinates": [ 13.3228681, 52.5183557 ] } },
{ "type": "Feature", "properties": { "element": "node", "id": 650633578, "name": "Ludwigs-Apotheke", "operator": null, "amenity": "pharmacy" }, "geometry": { "type": "Point", "coordinates": [ 13.3363347, 52.523569 ] } },
{ "type": "Feature", "properties": { "element": "node", "id": 653256888, "name": "Apotheke am Asternplatz", "operator": null, "amenity": "pharmacy" }, "geometry": { "type": "Point", "coordinates": [ 13.3038018, 52.4488384 ] } },
{ "type": "Feature", "properties": { "element": "node", "id": 653289588, "name": "easyApotheke", "operator": null, "amenity": "pharmacy" }, "geometry": { "type": "Point", "coordinates": [ 13.4403303, 52.5410448 ] } },
{ "type": "Feature", "properties": { "element": "node", "id": 656006001, "name": "Düppel Apotheke", "operator": null, "amenity": "pharmacy" }, "geometry": { "type": "Point", "coordinates": [ 13.2419523, 52.4234139 ] } },
{ "type": "Feature", "properties": { "element": "node", "id": 656210648, "name": "Mariannen-Apotheke", "operator": null, "amenity": "pharmacy" }, "geometry": { "type": "Point", "coordinates": [ 13.1556432, 52.5325457 ] } },
{ "type": "Feature", "properties": { "element": "node", "id": 658444284, "name": "Apotheke am Augustenburger Platz", "operator": null, "amenity": "pharmacy" }, "geometry": { "type": "Point", "coordinates": [ 13.3503744, 52.541849 ] } },
{ "type": "Feature", "properties": { "element": "node", "id": 658612646, "name": "Schildhorn Apotheke", "operator": null, "amenity": "pharmacy" }, "geometry": { "type": "Point", "coordinates": [ 13.3241522, 52.4607968 ] } },
{ "type": "Feature", "properties": { "element": "node", "id": 661092195, "name": "Atlantis-Apotheke", "operator": null, "amenity": "pharmacy" }, "geometry": { "type": "Point", "coordinates": [ 13.3048087, 52.5130881 ] } },
{ "type": "Feature", "properties": { "element": "node", "id": 661126965, "name": "Flora-Apotheke", "operator": null, "amenity": "pharmacy" }, "geometry": { "type": "Point", "coordinates": [ 13.3043479, 52.5172034 ] } },
{ "type": "Feature", "properties": { "element": "node", "id": 663008203, "name": "Karlsbader Apotheke", "operator": null, "amenity": "pharmacy" }, "geometry": { "type": "Point", "coordinates": [ 13.2821088, 52.4780536 ] } },
{ "type": "Feature", "properties": { "element": "node", "id": 665535053, "name": "Pestalozzi Apotheke", "operator": "Sarab Ridha", "amenity": "pharmacy" }, "geometry": { "type": "Point", "coordinates": [ 13.3018276, 52.5080757 ] } },
{ "type": "Feature", "properties": { "element": "node", "id": 666388871, "name": "Erasmus-Apotheke", "operator": null, "amenity": "pharmacy" }, "geometry": { "type": "Point", "coordinates": [ 13.3013735, 52.4886003 ] } },
{ "type": "Feature", "properties": { "element": "node", "id": 666961028, "name": "Siemensstadt Apotheke", "operator": null, "amenity": "pharmacy" }, "geometry": { "type": "Point", "coordinates": [ 13.2799585, 52.5379148 ] } },
{ "type": "Feature", "properties": { "element": "node", "id": 667211329, "name": "Fürstenplatz-Apotheke", "operator": null, "amenity": "pharmacy" }, "geometry": { "type": "Point", "coordinates": [ 13.2653691, 52.5123167 ] } },
{ "type": "Feature", "properties": { "element": "node", "id": 667211352, "name": "Quant Apotheke", "operator": null, "amenity": "pharmacy" }, "geometry": { "type": "Point", "coordinates": [ 13.2698479, 52.510638 ] } },
{ "type": "Feature", "properties": { "element": "node", "id": 667211375, "name": "Raphael-Apotheke", "operator": "Inh. Kristin Kneuß e.K.", "amenity": "pharmacy" }, "geometry": { "type": "Point", "coordinates": [ 13.2572734, 52.5191931 ] } },
{ "type": "Feature", "properties": { "element": "node", "id": 667211386, "name": "Reichs-Apotheke", "operator": null, "amenity": "pharmacy" }, "geometry": { "type": "Point", "coordinates": [ 13.2609904, 52.5158753 ] } },
{ "type": "Feature", "properties": { "element": "node", "id": 667211398, "name": "Apotheke am Steubenplatz", "operator": null, "amenity": "pharmacy" }, "geometry": { "type": "Point", "coordinates": [ 13.2616014, 52.5160655 ] } },
{ "type": "Feature", "properties": { "element": "node", "id": 668246090, "name": "Barbara-Apotheke", "operator": null, "amenity": "pharmacy" }, "geometry": { "type": "Point", "coordinates": [ 13.2530168, 52.4497045 ] } },
{ "type": "Feature", "properties": { "element": "node", "id": 668899440, "name": "Apotheke am Tierpark", "operator": null, "amenity": "pharmacy" }, "geometry": { "type": "Point", "coordinates": [ 13.5124502, 52.504119 ] } },
{ "type": "Feature", "properties": { "element": "node", "id": 670658040, "name": "Königin-Luise-Apotheke", "operator": null, "amenity": "pharmacy" }, "geometry": { "type": "Point", "coordinates": [ 13.3609228, 52.4977903 ] } },
{ "type": "Feature", "properties": { "element": "node", "id": 671210857, "name": "Annen-Apotheke", "operator": null, "amenity": "pharmacy" }, "geometry": { "type": "Point", "coordinates": [ 13.301616, 52.58365 ] } },
{ "type": "Feature", "properties": { "element": "node", "id": 671390314, "name": "VitaCura-Apotheke", "operator": null, "amenity": "pharmacy" }, "geometry": { "type": "Point", "coordinates": [ 13.5438535, 52.5235741 ] } },
{ "type": "Feature", "properties": { "element": "node", "id": 671488820, "name": "Apotheke am S-Bahnhof Storkower Straße", "operator": "Sylke Möller", "amenity": "pharmacy" }, "geometry": { "type": "Point", "coordinates": [ 13.4623091, 52.5239265 ] } },
{ "type": "Feature", "properties": { "element": "node", "id": 671696780, "name": "Westend - Apotheke", "operator": null, "amenity": "pharmacy" }, "geometry": { "type": "Point", "coordinates": [ 13.2787702, 52.5185444 ] } },
{ "type": "Feature", "properties": { "element": "node", "id": 674086086, "name": "Kronen-Apotheke", "operator": null, "amenity": "pharmacy" }, "geometry": { "type": "Point", "coordinates": [ 13.2013519, 52.5480636 ] } },
{ "type": "Feature", "properties": { "element": "node", "id": 674316062, "name": "Gervinus-Apotheke", "operator": null, "amenity": "pharmacy" }, "geometry": { "type": "Point", "coordinates": [ 13.3075551, 52.5044892 ] } },
{ "type": "Feature", "properties": { "element": "node", "id": 678295768, "name": "Waldsee-Apotheke", "operator": null, "amenity": "pharmacy" }, "geometry": { "type": "Point", "coordinates": [ 13.3136912, 52.6208593 ] } },
{ "type": "Feature", "properties": { "element": "node", "id": 689563385, "name": "Christophorus-Apotheke", "operator": null, "amenity": "pharmacy" }, "geometry": { "type": "Point", "coordinates": [ 13.3217071, 52.4576143 ] } },
{ "type": "Feature", "properties": { "element": "node", "id": 691484619, "name": "Althoff-Apotheke", "operator": "Apothekerin Daniela Stoepel e.K.", "amenity": "pharmacy" }, "geometry": { "type": "Point", "coordinates": [ 13.3299507, 52.4580136 ] } },
{ "type": "Feature", "properties": { "element": "node", "id": 691484670, "name": "Dr. Krachts Apotheke", "operator": "Abdolreza Morad-Reza", "amenity": "pharmacy" }, "geometry": { "type": "Point", "coordinates": [ 13.3320209, 52.4681185 ] } },
{ "type": "Feature", "properties": { "element": "node", "id": 699533239, "name": "Gartenstadt Apotheke", "operator": null, "amenity": "pharmacy" }, "geometry": { "type": "Point", "coordinates": [ 13.5072138, 52.4041242 ] } },
{ "type": "Feature", "properties": { "element": "node", "id": 699538009, "name": "Apotheke Alt-Rudow", "operator": null, "amenity": "pharmacy" }, "geometry": { "type": "Point", "coordinates": [ 13.4920406, 52.4201063 ] } },
{ "type": "Feature", "properties": { "element": "node", "id": 703042593, "name": "Paracelsus Apotheke", "operator": null, "amenity": "pharmacy" }, "geometry": { "type": "Point", "coordinates": [ 13.4779131, 52.4292698 ] } },
{ "type": "Feature", "properties": { "element": "node", "id": 703802174, "name": "Meraner Apotheke", "operator": null, "amenity": "pharmacy" }, "geometry": { "type": "Point", "coordinates": [ 13.3386726, 52.4866223 ] } },
{ "type": "Feature", "properties": { "element": "node", "id": 715203766, "name": "Möwen-Apotheke", "operator": null, "amenity": "pharmacy" }, "geometry": { "type": "Point", "coordinates": [ 13.2991581, 52.4729719 ] } },
{ "type": "Feature", "properties": { "element": "node", "id": 715203882, "name": "Fortuna-Apotheke", "operator": null, "amenity": "pharmacy" }, "geometry": { "type": "Point", "coordinates": [ 13.3224732, 52.4888204 ] } },
{ "type": "Feature", "properties": { "element": "node", "id": 715203887, "name": "Josephinen Apotheke", "operator": null, "amenity": "pharmacy" }, "geometry": { "type": "Point", "coordinates": [ 13.3227162, 52.4901513 ] } },
{ "type": "Feature", "properties": { "element": "node", "id": 715911607, "name": "Suarez-Apotheke", "operator": "Nelli Smachtin", "amenity": "pharmacy" }, "geometry": { "type": "Point", "coordinates": [ 13.2975749, 52.5103771 ] } },
{ "type": "Feature", "properties": { "element": "node", "id": 718143915, "name": "Apotheke am Funkturm", "operator": null, "amenity": "pharmacy" }, "geometry": { "type": "Point", "coordinates": [ 13.2842068, 52.5063159 ] } },
{ "type": "Feature", "properties": { "element": "node", "id": 730172940, "name": "Goeben-Apotheke", "operator": "Mojgan Yousefi Kamangar e.K.", "amenity": "pharmacy" }, "geometry": { "type": "Point", "coordinates": [ 13.3667198, 52.4931996 ] } },
{ "type": "Feature", "properties": { "element": "node", "id": 733902771, "name": "Centrum Apotheke", "operator": null, "amenity": "pharmacy" }, "geometry": { "type": "Point", "coordinates": [ 13.4630198, 52.4254275 ] } },
{ "type": "Feature", "properties": { "element": "node", "id": 737199963, "name": "gesundLeben", "operator": null, "amenity": "pharmacy" }, "geometry": { "type": "Point", "coordinates": [ 13.478518, 52.5268005 ] } },
{ "type": "Feature", "properties": { "element": "node", "id": 738996191, "name": "Kurmark Apotheke", "operator": null, "amenity": "pharmacy" }, "geometry": { "type": "Point", "coordinates": [ 13.3637956, 52.4994495 ] } },
{ "type": "Feature", "properties": { "element": "node", "id": 747517159, "name": "Nordend-Apotheke", "operator": null, "amenity": "pharmacy" }, "geometry": { "type": "Point", "coordinates": [ 13.4014334, 52.5894147 ] } },
{ "type": "Feature", "properties": { "element": "node", "id": 753467604, "name": "Mendel Apotheke", "operator": null, "amenity": "pharmacy" }, "geometry": { "type": "Point", "coordinates": [ 13.4108555, 52.5714517 ] } },
{ "type": "Feature", "properties": { "element": "node", "id": 762002923, "name": "Heide-Apotheke", "operator": "Birgit Schmidt e.Kfr.", "amenity": "pharmacy" }, "geometry": { "type": "Point", "coordinates": [ 13.5749614, 52.4870402 ] } },
{ "type": "Feature", "properties": { "element": "node", "id": 765341424, "name": "Eulen Apotheke", "operator": null, "amenity": "pharmacy" }, "geometry": { "type": "Point", "coordinates": [ 13.397257, 52.5657093 ] } },
{ "type": "Feature", "properties": { "element": "node", "id": 765566778, "name": "Adler-Apotheke", "operator": null, "amenity": "pharmacy" }, "geometry": { "type": "Point", "coordinates": [ 13.2591411, 52.4321449 ] } },
{ "type": "Feature", "properties": { "element": "node", "id": 766742178, "name": "Sternlicht Apotheke", "operator": null, "amenity": "pharmacy" }, "geometry": { "type": "Point", "coordinates": [ 13.4094009, 52.4904307 ] } },
{ "type": "Feature", "properties": { "element": "node", "id": 766875155, "name": "Elefanten-Apotheke", "operator": "Anne Poppe e.K.", "amenity": "pharmacy" }, "geometry": { "type": "Point", "coordinates": [ 13.5480046, 52.4382284 ] } },
{ "type": "Feature", "properties": { "element": "node", "id": 766875188, "name": "Adler Apotheke", "operator": "Oscar Wilfried Lienau e.K.", "amenity": "pharmacy" }, "geometry": { "type": "Point", "coordinates": [ 13.543222, 52.4360165 ] } },
{ "type": "Feature", "properties": { "element": "node", "id": 769270129, "name": "Kopenhagener Apotheke", "operator": null, "amenity": "pharmacy" }, "geometry": { "type": "Point", "coordinates": [ 13.3595153, 52.5743966 ] } },
{ "type": "Feature", "properties": { "element": "node", "id": 769318454, "name": "Lindauer-Apotheke", "operator": "Azam Azadegan e.K.", "amenity": "pharmacy" }, "geometry": { "type": "Point", "coordinates": [ 13.3594452, 52.573665 ] } },
{ "type": "Feature", "properties": { "element": "node", "id": 769365479, "name": "Apotheke am Moritzplatz", "operator": null, "amenity": "pharmacy" }, "geometry": { "type": "Point", "coordinates": [ 13.4129908, 52.5028987 ] } },
{ "type": "Feature", "properties": { "element": "node", "id": 769847926, "name": "Urban-Apotheke", "operator": null, "amenity": "pharmacy" }, "geometry": { "type": "Point", "coordinates": [ 13.4158532, 52.4908644 ] } },
{ "type": "Feature", "properties": { "element": "node", "id": 769847931, "name": "Körte-Apotheke", "operator": null, "amenity": "pharmacy" }, "geometry": { "type": "Point", "coordinates": [ 13.4137912, 52.4919934 ] } },
{ "type": "Feature", "properties": { "element": "node", "id": 770651959, "name": "Sonnen Apotheke", "operator": null, "amenity": "pharmacy" }, "geometry": { "type": "Point", "coordinates": [ 13.4317943, 52.5544002 ] } },
{ "type": "Feature", "properties": { "element": "node", "id": 771332595, "name": "Bavaria-Apotheke", "operator": null, "amenity": "pharmacy" }, "geometry": { "type": "Point", "coordinates": [ 13.340083, 52.4979101 ] } },
{ "type": "Feature", "properties": { "element": "node", "id": 775342929, "name": "Germania Apotheke", "operator": "Apothekerin Sabine Brakowski e.K.", "amenity": "pharmacy" }, "geometry": { "type": "Point", "coordinates": [ 13.3223417, 52.4589046 ] } },
{ "type": "Feature", "properties": { "element": "node", "id": 775578347, "name": "Prenzlauer Apotheke", "operator": null, "amenity": "pharmacy" }, "geometry": { "type": "Point", "coordinates": [ 13.4218153, 52.5359441 ] } },
{ "type": "Feature", "properties": { "element": "node", "id": 795255878, "name": "Brigitten-Apotheke", "operator": null, "amenity": "pharmacy" }, "geometry": { "type": "Point", "coordinates": [ 13.3409295, 52.4509538 ] } },
{ "type": "Feature", "properties": { "element": "node", "id": 808390982, "name": "Brunnen-Apotheke", "operator": null, "amenity": "pharmacy" }, "geometry": { "type": "Point", "coordinates": [ 13.5256044, 52.5678366 ] } },
{ "type": "Feature", "properties": { "element": "node", "id": 808390994, "name": "Auxilia-Apotheke", "operator": null, "amenity": "pharmacy" }, "geometry": { "type": "Point", "coordinates": [ 13.5075743, 52.5648301 ] } },
{ "type": "Feature", "properties": { "element": "node", "id": 808391031, "name": "Falken-Apotheke", "operator": null, "amenity": "pharmacy" }, "geometry": { "type": "Point", "coordinates": [ 13.5180117, 52.5673914 ] } },
{ "type": "Feature", "properties": { "element": "node", "id": 811187886, "name": "Nord-West-Apotheke", "operator": null, "amenity": "pharmacy" }, "geometry": { "type": "Point", "coordinates": [ 13.3509417, 52.5323433 ] } },
{ "type": "Feature", "properties": { "element": "node", "id": 813811847, "name": "Curtius-Apotheke", "operator": null, "amenity": "pharmacy" }, "geometry": { "type": "Point", "coordinates": [ 13.2960084, 52.4429005 ] } },
{ "type": "Feature", "properties": { "element": "node", "id": 816598789, "name": "Apotheke am Hansaplatz", "operator": null, "amenity": "pharmacy" }, "geometry": { "type": "Point", "coordinates": [ 13.3429225, 52.5187747 ] } },
{ "type": "Feature", "properties": { "element": "node", "id": 833390882, "name": "easyApotheke", "operator": "Mehmet Geyik e.K.", "amenity": "pharmacy" }, "geometry": { "type": "Point", "coordinates": [ 13.3261851, 52.4646654 ] } },
{ "type": "Feature", "properties": { "element": "node", "id": 848509143, "name": "Apotheke Berg", "operator": null, "amenity": "pharmacy" }, "geometry": { "type": "Point", "coordinates": [ 13.4196742, 52.4992782 ] } },
{ "type": "Feature", "properties": { "element": "node", "id": 849520185, "name": "Wilhelm-Voigt-Apotheke", "operator": null, "amenity": "pharmacy" }, "geometry": { "type": "Point", "coordinates": [ 13.5873859, 52.4414305 ] } },
{ "type": "Feature", "properties": { "element": "node", "id": 853806321, "name": "Grüne Apotheke Lichtenrade", "operator": "Apothekerin Franziska Bukowski", "amenity": "pharmacy" }, "geometry": { "type": "Point", "coordinates": [ 13.4022416, 52.4119945 ] } },
{ "type": "Feature", "properties": { "element": "node", "id": 854996274, "name": "Utrechter Apotheke", "operator": null, "amenity": "pharmacy" }, "geometry": { "type": "Point", "coordinates": [ 13.3630015, 52.5506076 ] } },
{ "type": "Feature", "properties": { "element": "node", "id": 858380325, "name": "Apotheke Charlottenburg-Nord", "operator": null, "amenity": "pharmacy" }, "geometry": { "type": "Point", "coordinates": [ 13.2863661, 52.5353861 ] } },
{ "type": "Feature", "properties": { "element": "node", "id": 858382391, "name": "Sanimedius-Apotheke im Plaza Marzahn", "operator": null, "amenity": "pharmacy" }, "geometry": { "type": "Point", "coordinates": [ 13.5592685, 52.5555383 ] } },
{ "type": "Feature", "properties": { "element": "node", "id": 876479038, "name": "Grünberger Apotheke", "operator": null, "amenity": "pharmacy" }, "geometry": { "type": "Point", "coordinates": [ 13.4551452, 52.5121401 ] } },
{ "type": "Feature", "properties": { "element": "node", "id": 928338769, "name": "Zieten Apotheke", "operator": null, "amenity": "pharmacy" }, "geometry": { "type": "Point", "coordinates": [ 13.384792, 52.4981158 ] } },
{ "type": "Feature", "properties": { "element": "node", "id": 931658983, "name": "Lucia-Apotheke am Wildenbruchplatz", "operator": null, "amenity": "pharmacy" }, "geometry": { "type": "Point", "coordinates": [ 13.4434517, 52.484367 ] } },
{ "type": "Feature", "properties": { "element": "node", "id": 933513518, "name": "Neue Apotheke am See", "operator": null, "amenity": "pharmacy" }, "geometry": { "type": "Point", "coordinates": [ 13.2153435, 52.4390902 ] } },
{ "type": "Feature", "properties": { "element": "node", "id": 956306643, "name": "Apotheke Q205", "operator": null, "amenity": "pharmacy" }, "geometry": { "type": "Point", "coordinates": [ 13.3903812, 52.5122639 ] } },
{ "type": "Feature", "properties": { "element": "node", "id": 977657079, "name": "Achilles Apotheke", "operator": null, "amenity": "pharmacy" }, "geometry": { "type": "Point", "coordinates": [ 13.4903858, 52.6171891 ] } },
{ "type": "Feature", "properties": { "element": "node", "id": 983454566, "name": "Friedrich-Apotheke", "operator": null, "amenity": "pharmacy" }, "geometry": { "type": "Point", "coordinates": [ 13.4731765, 52.5136594 ] } },
{ "type": "Feature", "properties": { "element": "node", "id": 992805862, "name": "Flora-Apotheke", "operator": null, "amenity": "pharmacy" }, "geometry": { "type": "Point", "coordinates": [ 13.3451962, 52.4372593 ] } },
{ "type": "Feature", "properties": { "element": "node", "id": 998713196, "name": "Wannsee Apotheke", "operator": null, "amenity": "pharmacy" }, "geometry": { "type": "Point", "coordinates": [ 13.1575816, 52.4196142 ] } },
{ "type": "Feature", "properties": { "element": "node", "id": 1008402120, "name": "Punkt Apotheke", "operator": null, "amenity": "pharmacy" }, "geometry": { "type": "Point", "coordinates": [ 13.436734, 52.4180116 ] } },
{ "type": "Feature", "properties": { "element": "node", "id": 1018833559, "name": "Mozart Apotheke", "operator": null, "amenity": "pharmacy" }, "geometry": { "type": "Point", "coordinates": [ 13.4306508, 52.4976442 ] } },
{ "type": "Feature", "properties": { "element": "node", "id": 1020532583, "name": "Schmargendorfer Apotheke", "operator": null, "amenity": "pharmacy" }, "geometry": { "type": "Point", "coordinates": [ 13.2944008, 52.4743541 ] } },
{ "type": "Feature", "properties": { "element": "node", "id": 1032978552, "name": "Stern-Apotheke", "operator": null, "amenity": "pharmacy" }, "geometry": { "type": "Point", "coordinates": [ 13.4961485, 52.535795 ] } },
{ "type": "Feature", "properties": { "element": "node", "id": 1037241970, "name": "Damian Apotheke", "operator": null, "amenity": "pharmacy" }, "geometry": { "type": "Point", "coordinates": [ 13.163271, 52.5511687 ] } },
{ "type": "Feature", "properties": { "element": "node", "id": 1038217551, "name": "Falken-Apotheke", "operator": null, "amenity": "pharmacy" }, "geometry": { "type": "Point", "coordinates": [ 13.1771981, 52.5475503 ] } },
{ "type": "Feature", "properties": { "element": "node", "id": 1042258380, "name": "Berolina Apotheke", "operator": null, "amenity": "pharmacy" }, "geometry": { "type": "Point", "coordinates": [ 13.2608479, 52.4363152 ] } },
{ "type": "Feature", "properties": { "element": "node", "id": 1051174903, "name": "Süd-Apotheke", "operator": null, "amenity": "pharmacy" }, "geometry": { "type": "Point", "coordinates": [ 13.2617669, 52.4107881 ] } },
{ "type": "Feature", "properties": { "element": "node", "id": 1075295993, "name": "Stadt Apotheke", "operator": null, "amenity": "pharmacy" }, "geometry": { "type": "Point", "coordinates": [ 13.2604293, 52.4344191 ] } },
{ "type": "Feature", "properties": { "element": "node", "id": 1082750111, "name": "Staufen-Apotheke", "operator": null, "amenity": "pharmacy" }, "geometry": { "type": "Point", "coordinates": [ 13.2615692, 52.4375339 ] } },
{ "type": "Feature", "properties": { "element": "node", "id": 1083676123, "name": "Prinzen Apotheke", "operator": null, "amenity": "pharmacy" }, "geometry": { "type": "Point", "coordinates": [ 13.4083406, 52.5010849 ] } },
{ "type": "Feature", "properties": { "element": "node", "id": 1094105653, "name": "Baba Jaga", "operator": null, "amenity": "pharmacy" }, "geometry": { "type": "Point", "coordinates": [ 13.5386173, 52.5277137 ] } },
{ "type": "Feature", "properties": { "element": "node", "id": 1110626664, "name": "Apotheke zum goldenen Anker", "operator": null, "amenity": "pharmacy" }, "geometry": { "type": "Point", "coordinates": [ 13.4277648, 52.4903456 ] } },
{ "type": "Feature", "properties": { "element": "node", "id": 1124601226, "name": "Park-Apotheke", "operator": null, "amenity": "pharmacy" }, "geometry": { "type": "Point", "coordinates": [ 13.2896726, 52.6339256 ] } },
{ "type": "Feature", "properties": { "element": "node", "id": 1124612201, "name": "Ludolfinger-Apotheke", "operator": null, "amenity": "pharmacy" }, "geometry": { "type": "Point", "coordinates": [ 13.2869838, 52.6325774 ] } },
{ "type": "Feature", "properties": { "element": "node", "id": 1143798306, "name": "pro-samed Apotheke", "operator": null, "amenity": "pharmacy" }, "geometry": { "type": "Point", "coordinates": [ 13.4416805, 52.5440277 ] } },
{ "type": "Feature", "properties": { "element": "node", "id": 1145597661, "name": "Apotheke am Tegeler See", "operator": null, "amenity": "pharmacy" }, "geometry": { "type": "Point", "coordinates": [ 13.2791669, 52.5774369 ] } },
{ "type": "Feature", "properties": { "element": "node", "id": 1163265616, "name": "Borussia-Apotheke", "operator": "Ursula Geibel", "amenity": "pharmacy" }, "geometry": { "type": "Point", "coordinates": [ 13.2956492, 52.5136253 ] } },
{ "type": "Feature", "properties": { "element": "node", "id": 1169920988, "name": "easyApotheke", "operator": null, "amenity": "pharmacy" }, "geometry": { "type": "Point", "coordinates": [ 13.380108, 52.4388221 ] } },
{ "type": "Feature", "properties": { "element": "node", "id": 1200964445, "name": "WitzlebenApotheke24", "operator": "Witzleben Apotheke", "amenity": "pharmacy" }, "geometry": { "type": "Point", "coordinates": [ 13.2827609, 52.5103117 ] } },
{ "type": "Feature", "properties": { "element": "node", "id": 1200964491, "name": "WitzlebenApotheke26", "operator": "Witzleben Apotheke", "amenity": "pharmacy" }, "geometry": { "type": "Point", "coordinates": [ 13.2814283, 52.5102306 ] } },
{ "type": "Feature", "properties": { "element": "node", "id": 1212618057, "name": "Sonnenschein-Apotheke", "operator": null, "amenity": "pharmacy" }, "geometry": { "type": "Point", "coordinates": [ 13.5243036, 52.4787595 ] } },
{ "type": "Feature", "properties": { "element": "node", "id": 1234501223, "name": "Paul Gerhardt Apotheke", "operator": null, "amenity": "pharmacy" }, "geometry": { "type": "Point", "coordinates": [ 13.3456342, 52.5543245 ] } },
{ "type": "Feature", "properties": { "element": "node", "id": 1235266856, "name": "Sonnen-Apotheke", "operator": "Monika Wahren e.K.", "amenity": "pharmacy" }, "geometry": { "type": "Point", "coordinates": [ 13.6013424, 52.4805013 ] } },
{ "type": "Feature", "properties": { "element": "node", "id": 1236581643, "name": "Doc+ Apotheke", "operator": null, "amenity": "pharmacy" }, "geometry": { "type": "Point", "coordinates": [ 13.3530389, 52.5501219 ] } },
{ "type": "Feature", "properties": { "element": "node", "id": 1246989790, "name": "Apotheke zum Schwan", "operator": null, "amenity": "pharmacy" }, "geometry": { "type": "Point", "coordinates": [ 13.4092742, 52.5043488 ] } },
{ "type": "Feature", "properties": { "element": "node", "id": 1252777062, "name": "Schloss-Apotheke Tegel", "operator": null, "amenity": "pharmacy" }, "geometry": { "type": "Point", "coordinates": [ 13.2843949, 52.5885653 ] } },
{ "type": "Feature", "properties": { "element": "node", "id": 1252944782, "name": "Alte Spree Apotheke", "operator": null, "amenity": "pharmacy" }, "geometry": { "type": "Point", "coordinates": [ 13.2826806, 52.5895474 ] } },
{ "type": "Feature", "properties": { "element": "node", "id": 1257075697, "name": "Apotheke am Friedrichshain", "operator": null, "amenity": "pharmacy" }, "geometry": { "type": "Point", "coordinates": [ 13.4398917, 52.5237553 ] } },
{ "type": "Feature", "properties": { "element": "node", "id": 1298246171, "name": "Vineta Apotheke", "operator": null, "amenity": "pharmacy" }, "geometry": { "type": "Point", "coordinates": [ 13.3938688, 52.5405418 ] } },
{ "type": "Feature", "properties": { "element": "node", "id": 1298511709, "name": "Apotheke am Gartenplatz", "operator": null, "amenity": "pharmacy" }, "geometry": { "type": "Point", "coordinates": [ 13.3854708, 52.5380192 ] } },
{ "type": "Feature", "properties": { "element": "node", "id": 1315650095, "name": "Kur-Apotheke", "operator": null, "amenity": "pharmacy" }, "geometry": { "type": "Point", "coordinates": [ 13.3869021, 52.4920432 ] } },
{ "type": "Feature", "properties": { "element": "node", "id": 1336599080, "name": "Dr. Rothes Apotheke", "operator": "Gunnar Arendt e.K.", "amenity": "pharmacy" }, "geometry": { "type": "Point", "coordinates": [ 13.5770429, 52.4553026 ] } },
{ "type": "Feature", "properties": { "element": "node", "id": 1336725194, "name": "Stadt-Apotheke", "operator": "Susanne Mackeldey e.K.", "amenity": "pharmacy" }, "geometry": { "type": "Point", "coordinates": [ 13.5747201, 52.444918 ] } },
{ "type": "Feature", "properties": { "element": "node", "id": 1336788980, "name": "Süd-Apotheke", "operator": null, "amenity": "pharmacy" }, "geometry": { "type": "Point", "coordinates": [ 13.5848235, 52.427899 ] } },
{ "type": "Feature", "properties": { "element": "node", "id": 1338226878, "name": "Jumbo Apotheke", "operator": null, "amenity": "pharmacy" }, "geometry": { "type": "Point", "coordinates": [ 13.5217595, 52.4973391 ] } },
{ "type": "Feature", "properties": { "element": "node", "id": 1365702036, "name": "Haselhorster Apotheke", "operator": null, "amenity": "pharmacy" }, "geometry": { "type": "Point", "coordinates": [ 13.2388868, 52.5424964 ] } },
{ "type": "Feature", "properties": { "element": "node", "id": 1374215630, "name": "Immanuel Apotheke", "operator": null, "amenity": "pharmacy" }, "geometry": { "type": "Point", "coordinates": [ 13.4221508, 52.533075 ] } },
{ "type": "Feature", "properties": { "element": "node", "id": 1375170411, "name": "Kiwi Apotheke", "operator": null, "amenity": "pharmacy" }, "geometry": { "type": "Point", "coordinates": [ 13.2189479, 52.557697 ] } },
{ "type": "Feature", "properties": { "element": "node", "id": 1397070332, "name": "Dominicus Apotheke", "operator": null, "amenity": "pharmacy" }, "geometry": { "type": "Point", "coordinates": [ 13.3497166, 52.4824434 ] } },
{ "type": "Feature", "properties": { "element": "node", "id": 1400224784, "name": "Fritz Apotheke", "operator": "Michael Lindenbacher", "amenity": "pharmacy" }, "geometry": { "type": "Point", "coordinates": [ 13.388732, 52.4370757 ] } },
{ "type": "Feature", "properties": { "element": "node", "id": 1413247085, "name": "Apotheke 97", "operator": null, "amenity": "pharmacy" }, "geometry": { "type": "Point", "coordinates": [ 13.2672695, 52.5369189 ] } },
{ "type": "Feature", "properties": { "element": "node", "id": 1419134521, "name": "Central Apotheke", "operator": "Frau Atanaska Winkler", "amenity": "pharmacy" }, "geometry": { "type": "Point", "coordinates": [ 13.2684032, 52.5369057 ] } },
{ "type": "Feature", "properties": { "element": "node", "id": 1434256844, "name": "Apotheke am Bayerischen Platz", "operator": "Helma Heinrici", "amenity": "pharmacy" }, "geometry": { "type": "Point", "coordinates": [ 13.3390663, 52.4885983 ] } },
{ "type": "Feature", "properties": { "element": "node", "id": 1492336686, "name": "Esmarch Apotheke", "operator": null, "amenity": "pharmacy" }, "geometry": { "type": "Point", "coordinates": [ 13.431803, 52.532136 ] } },
{ "type": "Feature", "properties": { "element": "node", "id": 1498608858, "name": "Apotheke Biesdorf-Süd", "operator": "Gabriele Heyn", "amenity": "pharmacy" }, "geometry": { "type": "Point", "coordinates": [ 13.5582187, 52.5060706 ] } },
{ "type": "Feature", "properties": { "element": "node", "id": 1504564883, "name": "Warschauer Apotheke", "operator": "Gisela Brückl", "amenity": "pharmacy" }, "geometry": { "type": "Point", "coordinates": [ 13.451441, 52.5090106 ] } },
{ "type": "Feature", "properties": { "element": "node", "id": 1527942471, "name": "Apotheke Impuls", "operator": null, "amenity": "pharmacy" }, "geometry": { "type": "Point", "coordinates": [ 13.4285441, 52.4846388 ] } },
{ "type": "Feature", "properties": { "element": "node", "id": 1552051348, "name": "MediosApotheke", "operator": null, "amenity": "pharmacy" }, "geometry": { "type": "Point", "coordinates": [ 13.3875545, 52.5260899 ] } },
{ "type": "Feature", "properties": { "element": "node", "id": 1554257377, "name": "St.Hildegard Apotheke", "operator": null, "amenity": "pharmacy" }, "geometry": { "type": "Point", "coordinates": [ 13.372337, 52.4460352 ] } },
{ "type": "Feature", "properties": { "element": "node", "id": 1575512027, "name": "Tannenberg Apotheke", "operator": null, "amenity": "pharmacy" }, "geometry": { "type": "Point", "coordinates": [ 13.329341, 52.4460263 ] } },
{ "type": "Feature", "properties": { "element": "node", "id": 1577132742, "name": "Oskar Helene Apotheke", "operator": null, "amenity": "pharmacy" }, "geometry": { "type": "Point", "coordinates": [ 13.269836, 52.4513152 ] } },
{ "type": "Feature", "properties": { "element": "node", "id": 1585171546, "name": "Fleming Apotheke", "operator": null, "amenity": "pharmacy" }, "geometry": { "type": "Point", "coordinates": [ 13.3294059, 52.6097315 ] } },
{ "type": "Feature", "properties": { "element": "node", "id": 1597559553, "name": "Apotheke am Schlosspark", "operator": null, "amenity": "pharmacy" }, "geometry": { "type": "Point", "coordinates": [ 13.4024597, 52.581118 ] } },
{ "type": "Feature", "properties": { "element": "node", "id": 1617416107, "name": "aktiv Apotheke", "operator": null, "amenity": "pharmacy" }, "geometry": { "type": "Point", "coordinates": [ 13.3137602, 52.4231693 ] } },
{ "type": "Feature", "properties": { "element": "node", "id": 1617419904, "name": "Apotheke im Schweizer Viertel", "operator": null, "amenity": "pharmacy" }, "geometry": { "type": "Point", "coordinates": [ 13.3036661, 52.4268932 ] } },
{ "type": "Feature", "properties": { "element": "node", "id": 1624585364, "name": "Vital-Apotheke", "operator": null, "amenity": "pharmacy" }, "geometry": { "type": "Point", "coordinates": [ 13.4203076, 52.4988803 ] } },
{ "type": "Feature", "properties": { "element": "node", "id": 1628927163, "name": "Apotheke im Pankeviertel", "operator": null, "amenity": "pharmacy" }, "geometry": { "type": "Point", "coordinates": [ 13.4282736, 52.5881829 ] } },
{ "type": "Feature", "properties": { "element": "node", "id": 1632227368, "name": "Linden Apotheke", "operator": null, "amenity": "pharmacy" }, "geometry": { "type": "Point", "coordinates": [ 13.3059616, 52.4174336 ] } },
{ "type": "Feature", "properties": { "element": "node", "id": 1636830086, "name": "Blaue Apotheke", "operator": "Robert Roggenbuck", "amenity": "pharmacy" }, "geometry": { "type": "Point", "coordinates": [ 13.4601281, 52.4939436 ] } },
{ "type": "Feature", "properties": { "element": "node", "id": 1640616159, "name": "Bären-Apotheke", "operator": null, "amenity": "pharmacy" }, "geometry": { "type": "Point", "coordinates": [ 13.3333432, 52.595082 ] } },
{ "type": "Feature", "properties": { "element": "node", "id": 1654832841, "name": "Hausapotheke - Vivantes Klinikum Neukölln", "operator": null, "amenity": "pharmacy" }, "geometry": { "type": "Point", "coordinates": [ 13.4564982, 52.4367426 ] } },
{ "type": "Feature", "properties": { "element": "node", "id": 1655132802, "name": "Sundgauer Apotheke", "operator": null, "amenity": "pharmacy" }, "geometry": { "type": "Point", "coordinates": [ 13.2707693, 52.4385108 ] } },
{ "type": "Feature", "properties": { "element": "node", "id": 1659884034, "name": "Märkische Apotheke", "operator": null, "amenity": "pharmacy" }, "geometry": { "type": "Point", "coordinates": [ 13.3562137, 52.5483468 ] } },
{ "type": "Feature", "properties": { "element": "node", "id": 1663350357, "name": "BEZIRKSapotheke", "operator": "Melanie Dolfen e. Kfr.", "amenity": "pharmacy" }, "geometry": { "type": "Point", "coordinates": [ 13.4511485, 52.5101873 ] } },
{ "type": "Feature", "properties": { "element": "node", "id": 1678448395, "name": "Forst Apotheke", "operator": null, "amenity": "pharmacy" }, "geometry": { "type": "Point", "coordinates": [ 13.3104944, 52.4652856 ] } },
{ "type": "Feature", "properties": { "element": "node", "id": 1703401473, "name": "Apotheke am Schillerplatz", "operator": null, "amenity": "pharmacy" }, "geometry": { "type": "Point", "coordinates": [ 13.3235696, 52.471767 ] } },
{ "type": "Feature", "properties": { "element": "node", "id": 1704256871, "name": "Lichtenrader Apotheke", "operator": null, "amenity": "pharmacy" }, "geometry": { "type": "Point", "coordinates": [ 13.3914745, 52.3981287 ] } },
{ "type": "Feature", "properties": { "element": "node", "id": 1719664188, "name": "Apotheke am Anton-Saefkow-Platz", "operator": null, "amenity": "pharmacy" }, "geometry": { "type": "Point", "coordinates": [ 13.4714754, 52.5286228 ] } },
{ "type": "Feature", "properties": { "element": "node", "id": 1721061596, "name": "Apotheke in Nikolassee", "operator": null, "amenity": "pharmacy" }, "geometry": { "type": "Point", "coordinates": [ 13.1949978, 52.4300081 ] } },
{ "type": "Feature", "properties": { "element": "node", "id": 1777151508, "name": "Apotheke am Stadtrand", "operator": null, "amenity": "pharmacy" }, "geometry": { "type": "Point", "coordinates": [ 13.5635073, 52.5708343 ] } },
{ "type": "Feature", "properties": { "element": "node", "id": 1782386007, "name": "Zieten Apotheke Rudow", "operator": null, "amenity": "pharmacy" }, "geometry": { "type": "Point", "coordinates": [ 13.496804, 52.4184421 ] } },
{ "type": "Feature", "properties": { "element": "node", "id": 1828707071, "name": "Rennbahn Apotheke", "operator": null, "amenity": "pharmacy" }, "geometry": { "type": "Point", "coordinates": [ 13.4591942, 52.5603111 ] } },
{ "type": "Feature", "properties": { "element": "node", "id": 1833509167, "name": "Apotheke am Bahnhof Grunewald", "operator": null, "amenity": "pharmacy" }, "geometry": { "type": "Point", "coordinates": [ 13.2640301, 52.4870726 ] } },
{ "type": "Feature", "properties": { "element": "node", "id": 1845158730, "name": "Wollank Apotheke", "operator": "Gisela Poser", "amenity": "pharmacy" }, "geometry": { "type": "Point", "coordinates": [ 13.3910866, 52.5636023 ] } },
{ "type": "Feature", "properties": { "element": "node", "id": 1863567226, "name": "Schwanen Apotheke", "operator": null, "amenity": "pharmacy" }, "geometry": { "type": "Point", "coordinates": [ 13.43824, 52.532715 ] } },
{ "type": "Feature", "properties": { "element": "node", "id": 1866461768, "name": "Ostsee-Apotheke", "operator": null, "amenity": "pharmacy" }, "geometry": { "type": "Point", "coordinates": [ 13.4455087, 52.5461931 ] } },
{ "type": "Feature", "properties": { "element": "node", "id": 1905963630, "name": "Fasanen-Apotheke", "operator": null, "amenity": "pharmacy" }, "geometry": { "type": "Point", "coordinates": [ 13.3248652, 52.4987789 ] } },
{ "type": "Feature", "properties": { "element": "node", "id": 1906515104, "name": "Emser Apotheke", "operator": null, "amenity": "pharmacy" }, "geometry": { "type": "Point", "coordinates": [ 13.3198452, 52.4967633 ] } },
{ "type": "Feature", "properties": { "element": "node", "id": 1914403852, "name": "Ranke-Apotheke", "operator": null, "amenity": "pharmacy" }, "geometry": { "type": "Point", "coordinates": [ 13.3305311, 52.5000244 ] } },
{ "type": "Feature", "properties": { "element": "node", "id": 1914552632, "name": "Apotheke am Ludwigkirchplatz", "operator": null, "amenity": "pharmacy" }, "geometry": { "type": "Point", "coordinates": [ 13.3234022, 52.4970403 ] } },
{ "type": "Feature", "properties": { "element": "node", "id": 1933362462, "name": "Viereck Apotheke", "operator": null, "amenity": "pharmacy" }, "geometry": { "type": "Point", "coordinates": [ 13.4934176, 52.6360319 ] } },
{ "type": "Feature", "properties": { "element": "node", "id": 1948961324, "name": "Charlotten-Apotheke", "operator": null, "amenity": "pharmacy" }, "geometry": { "type": "Point", "coordinates": [ 13.2898547, 52.518856 ] } },
{ "type": "Feature", "properties": { "element": "node", "id": 1948961329, "name": "Falken-Apotheke", "operator": null, "amenity": "pharmacy" }, "geometry": { "type": "Point", "coordinates": [ 13.290931, 52.5152489 ] } },
{ "type": "Feature", "properties": { "element": "node", "id": 1963129662, "name": "Atoll-Apotheke", "operator": "C. Reiners e.K.", "amenity": "pharmacy" }, "geometry": { "type": "Point", "coordinates": [ 13.4318149, 52.4674061 ] } },
{ "type": "Feature", "properties": { "element": "node", "id": 2013009698, "name": "Cottbusserdamm Apotheke", "operator": null, "amenity": "pharmacy" }, "geometry": { "type": "Point", "coordinates": [ 13.4204287, 52.4951332 ] } },
{ "type": "Feature", "properties": { "element": "node", "id": 2018710520, "name": "Ibis Apotheke", "operator": null, "amenity": "pharmacy" }, "geometry": { "type": "Point", "coordinates": [ 13.4838189, 52.4257157 ] } },
{ "type": "Feature", "properties": { "element": "node", "id": 2026247343, "name": "Adler Apotheke", "operator": null, "amenity": "pharmacy" }, "geometry": { "type": "Point", "coordinates": [ 13.5580924, 52.5247222 ] } },
{ "type": "Feature", "properties": { "element": "node", "id": 2026466974, "name": "Abacus Apotheke", "operator": null, "amenity": "pharmacy" }, "geometry": { "type": "Point", "coordinates": [ 13.5521929, 52.5345031 ] } },
{ "type": "Feature", "properties": { "element": "node", "id": 2038240175, "name": "Sanimedius-Apotheke im Spreecenter", "operator": "Ronald Clasen", "amenity": "pharmacy" }, "geometry": { "type": "Point", "coordinates": [ 13.5874121, 52.5211516 ] } },
{ "type": "Feature", "properties": { "element": "node", "id": 2039162001, "name": "Apotheke Wutzky-Center", "operator": null, "amenity": "pharmacy" }, "geometry": { "type": "Point", "coordinates": [ 13.4754642, 52.4227979 ] } },
{ "type": "Feature", "properties": { "element": "node", "id": 2046807703, "name": "Wartenberger Apotheke", "operator": null, "amenity": "pharmacy" }, "geometry": { "type": "Point", "coordinates": [ 13.5049041, 52.5730689 ] } },
{ "type": "Feature", "properties": { "element": "node", "id": 2098147261, "name": "Doc Maier", "operator": null, "amenity": "pharmacy" }, "geometry": { "type": "Point", "coordinates": [ 13.3418127, 52.4467545 ] } },
{ "type": "Feature", "properties": { "element": "node", "id": 2098221272, "name": "Markus Apotheke", "operator": null, "amenity": "pharmacy" }, "geometry": { "type": "Point", "coordinates": [ 13.3397351, 52.4481027 ] } },
{ "type": "Feature", "properties": { "element": "node", "id": 2110613369, "name": "Oldenburger Apotheke", "operator": null, "amenity": "pharmacy" }, "geometry": { "type": "Point", "coordinates": [ 13.3359327, 52.5302571 ] } },
{ "type": "Feature", "properties": { "element": "node", "id": 2139861333, "name": "Meine Apotheke", "operator": null, "amenity": "pharmacy" }, "geometry": { "type": "Point", "coordinates": [ 13.3125891, 52.4996926 ] } },
{ "type": "Feature", "properties": { "element": "node", "id": 2139861379, "name": "Cornelia-Apotheke", "operator": null, "amenity": "pharmacy" }, "geometry": { "type": "Point", "coordinates": [ 13.311957, 52.4983773 ] } },
{ "type": "Feature", "properties": { "element": "node", "id": 2169170618, "name": "Preussen Apotheke Spandau", "operator": null, "amenity": "pharmacy" }, "geometry": { "type": "Point", "coordinates": [ 13.2024674, 52.5368301 ] } },
{ "type": "Feature", "properties": { "element": "node", "id": 2181178545, "name": "Linden Apotheke", "operator": null, "amenity": "pharmacy" }, "geometry": { "type": "Point", "coordinates": [ 13.398262, 52.506761 ] } },
{ "type": "Feature", "properties": { "element": "node", "id": 2251295178, "name": "Masuren-Apotheke", "operator": "Jutta Krebs eKfr", "amenity": "pharmacy" }, "geometry": { "type": "Point", "coordinates": [ 13.2223693, 52.5094033 ] } },
{ "type": "Feature", "properties": { "element": "node", "id": 2273462199, "name": "easyApotheke", "operator": null, "amenity": "pharmacy" }, "geometry": { "type": "Point", "coordinates": [ 13.5108472, 52.56849 ] } },
{ "type": "Feature", "properties": { "element": "node", "id": 2274239284, "name": "Vitalis Apotheke", "operator": null, "amenity": "pharmacy" }, "geometry": { "type": "Point", "coordinates": [ 13.5162437, 52.5688682 ] } },
{ "type": "Feature", "properties": { "element": "node", "id": 2288127751, "name": "Moabiter Apotheke", "operator": null, "amenity": "pharmacy" }, "geometry": { "type": "Point", "coordinates": [ 13.3522408, 52.5243574 ] } },
{ "type": "Feature", "properties": { "element": "node", "id": 2320532525, "name": "Havelland-Apotheke", "operator": null, "amenity": "pharmacy" }, "geometry": { "type": "Point", "coordinates": [ 13.1422529, 52.4531286 ] } },
{ "type": "Feature", "properties": { "element": "node", "id": 2320629344, "name": "Apotheke am Wittenbergplatz", "operator": null, "amenity": "pharmacy" }, "geometry": { "type": "Point", "coordinates": [ 13.3444884, 52.5035594 ] } },
{ "type": "Feature", "properties": { "element": "node", "id": 2325407968, "name": "Dafne-Apotheke", "operator": null, "amenity": "pharmacy" }, "geometry": { "type": "Point", "coordinates": [ 13.4427459, 52.4684978 ] } },
{ "type": "Feature", "properties": { "element": "node", "id": 2423122288, "name": "Octopus Apotheke", "operator": null, "amenity": "pharmacy" }, "geometry": { "type": "Point", "coordinates": [ 13.3192004, 52.6065358 ] } },
{ "type": "Feature", "properties": { "element": "node", "id": 2424327600, "name": "Süd-Apotheke", "operator": "Heike Steinhausen", "amenity": "pharmacy" }, "geometry": { "type": "Point", "coordinates": [ 13.6007627, 52.4766287 ] } },
{ "type": "Feature", "properties": { "element": "node", "id": 2429162139, "name": "Löwen Apotheke", "operator": null, "amenity": "pharmacy" }, "geometry": { "type": "Point", "coordinates": [ 13.3297842, 52.5696336 ] } },
{ "type": "Feature", "properties": { "element": "node", "id": 2439759182, "name": "Lilien-Apotheke", "operator": null, "amenity": "pharmacy" }, "geometry": { "type": "Point", "coordinates": [ 13.2724807, 52.5101677 ] } },
{ "type": "Feature", "properties": { "element": "node", "id": 2445456645, "name": "Sylter Apotheke", "operator": null, "amenity": "pharmacy" }, "geometry": { "type": "Point", "coordinates": [ 13.3215081, 52.4866571 ] } },
{ "type": "Feature", "properties": { "element": "node", "id": 2476268050, "name": "Blitz Apotheke", "operator": null, "amenity": "pharmacy" }, "geometry": { "type": "Point", "coordinates": [ 13.3299374, 52.478841 ] } },
{ "type": "Feature", "properties": { "element": "node", "id": 2484338009, "name": "Sonnenapotheke", "operator": "Mohammed El Azouzi", "amenity": "pharmacy" }, "geometry": { "type": "Point", "coordinates": [ 13.4358446, 52.4835661 ] } },
{ "type": "Feature", "properties": { "element": "node", "id": 2496651331, "name": "Kreuzberg Apotheke", "operator": null, "amenity": "pharmacy" }, "geometry": { "type": "Point", "coordinates": [ 13.3870554, 52.4902187 ] } },
{ "type": "Feature", "properties": { "element": "node", "id": 2516120286, "name": "Flora-Apotheke", "operator": null, "amenity": "pharmacy" }, "geometry": { "type": "Point", "coordinates": [ 13.4597629, 52.5504319 ] } },
{ "type": "Feature", "properties": { "element": "node", "id": 2541179150, "name": "Apotheke Zum Elefanten", "operator": null, "amenity": "pharmacy" }, "geometry": { "type": "Point", "coordinates": [ 13.4391375, 52.4762082 ] } },
{ "type": "Feature", "properties": { "element": "node", "id": 2541258991, "name": "easyApotheke", "operator": null, "amenity": "pharmacy" }, "geometry": { "type": "Point", "coordinates": [ 13.3064648, 52.5065338 ] } },
{ "type": "Feature", "properties": { "element": "node", "id": 2557710789, "name": "Spree-Apotheke", "operator": null, "amenity": "pharmacy" }, "geometry": { "type": "Point", "coordinates": [ 13.342, 52.5253262 ] } },
{ "type": "Feature", "properties": { "element": "node", "id": 2638963983, "name": "Richthofen-Apotheke", "operator": null, "amenity": "pharmacy" }, "geometry": { "type": "Point", "coordinates": [ 13.3826359, 52.4831066 ] } },
{ "type": "Feature", "properties": { "element": "node", "id": 2713665583, "name": "Apotheke im Bismarck-Karree", "operator": null, "amenity": "pharmacy" }, "geometry": { "type": "Point", "coordinates": [ 13.3046182, 52.5117094 ] } },
{ "type": "Feature", "properties": { "element": "node", "id": 2717366804, "name": "Stadtpark-Apotheke", "operator": null, "amenity": "pharmacy" }, "geometry": { "type": "Point", "coordinates": [ 13.3335365, 52.4523689 ] } },
{ "type": "Feature", "properties": { "element": "node", "id": 2779341569, "name": "Saint Charles Apotheke", "operator": null, "amenity": "pharmacy" }, "geometry": { "type": "Point", "coordinates": [ 13.317788, 52.4985147 ] } },
{ "type": "Feature", "properties": { "element": "node", "id": 2782835460, "name": "Sanitas Apotheke", "operator": null, "amenity": "pharmacy" }, "geometry": { "type": "Point", "coordinates": [ 13.3255639, 52.6078978 ] } },
{ "type": "Feature", "properties": { "element": "node", "id": 2796710201, "name": "Apotheke Hackesches Quartier", "operator": null, "amenity": "pharmacy" }, "geometry": { "type": "Point", "coordinates": [ 13.4024813, 52.5221812 ] } },
{ "type": "Feature", "properties": { "element": "node", "id": 2820029176, "name": "Apotheke an der Alten Schule", "operator": "Stephan Liebreich e.K.", "amenity": "pharmacy" }, "geometry": { "type": "Point", "coordinates": [ 13.5506904, 52.4387416 ] } },
{ "type": "Feature", "properties": { "element": "node", "id": 2829271312, "name": "Regenbogen Apotheke", "operator": "Stefan Rezepa e.K", "amenity": "pharmacy" }, "geometry": { "type": "Point", "coordinates": [ 13.3593721, 52.5537925 ] } },
{ "type": "Feature", "properties": { "element": "node", "id": 2857712871, "name": "Achat Apotheke", "operator": null, "amenity": "pharmacy" }, "geometry": { "type": "Point", "coordinates": [ 13.3977794, 52.5347618 ] } },
{ "type": "Feature", "properties": { "element": "node", "id": 2864467602, "name": "Post-Apotheke Buckow", "operator": null, "amenity": "pharmacy" }, "geometry": { "type": "Point", "coordinates": [ 13.4360037, 52.4245859 ] } },
{ "type": "Feature", "properties": { "element": "node", "id": 2864491450, "name": "Apotheke Alt-Buckow", "operator": null, "amenity": "pharmacy" }, "geometry": { "type": "Point", "coordinates": [ 13.4356893, 52.4231003 ] } },
{ "type": "Feature", "properties": { "element": "node", "id": 2867498526, "name": "Gertrauden Apotheke", "operator": null, "amenity": "pharmacy" }, "geometry": { "type": "Point", "coordinates": [ 13.4273954, 52.4205157 ] } },
{ "type": "Feature", "properties": { "element": "node", "id": 2872185601, "name": "Kloster-Apotheke", "operator": null, "amenity": "pharmacy" }, "geometry": { "type": "Point", "coordinates": [ 13.1975304, 52.5323465 ] } },
{ "type": "Feature", "properties": { "element": "node", "id": 2952546845, "name": "Neue Apotheke", "operator": null, "amenity": "pharmacy" }, "geometry": { "type": "Point", "coordinates": [ 13.3612245, 52.5703596 ] } },
{ "type": "Feature", "properties": { "element": "node", "id": 2952573359, "name": "Residenz Apotheke", "operator": null, "amenity": "pharmacy" }, "geometry": { "type": "Point", "coordinates": [ 13.3630766, 52.5667626 ] } },
{ "type": "Feature", "properties": { "element": "node", "id": 2969309057, "name": "Märkische Apotheke Kladow", "operator": null, "amenity": "pharmacy" }, "geometry": { "type": "Point", "coordinates": [ 13.1446817, 52.4549833 ] } },
{ "type": "Feature", "properties": { "element": "node", "id": 2998135448, "name": "Amtsfeld-Apotheke", "operator": null, "amenity": "pharmacy" }, "geometry": { "type": "Point", "coordinates": [ 13.5939645, 52.4405588 ] } },
{ "type": "Feature", "properties": { "element": "node", "id": 3012143573, "name": "Falken-Apotheke", "operator": "Ute Nitzer", "amenity": "pharmacy" }, "geometry": { "type": "Point", "coordinates": [ 13.5138972, 52.464407 ] } },
{ "type": "Feature", "properties": { "element": "node", "id": 3041745938, "name": "Manteuffel-Apotheke", "operator": null, "amenity": "pharmacy" }, "geometry": { "type": "Point", "coordinates": [ 13.3763073, 52.4604721 ] } },
{ "type": "Feature", "properties": { "element": "node", "id": 3045761935, "name": "Amsel-Apotheke", "operator": null, "amenity": "pharmacy" }, "geometry": { "type": "Point", "coordinates": [ 13.5094017, 52.5745184 ] } },
{ "type": "Feature", "properties": { "element": "node", "id": 3072343433, "name": "Apotheke am Viktoria-Luise-Platz", "operator": null, "amenity": "pharmacy" }, "geometry": { "type": "Point", "coordinates": [ 13.3410681, 52.4952479 ] } },
{ "type": "Feature", "properties": { "element": "node", "id": 3080747241, "name": "Ginkko-Apotheke", "operator": null, "amenity": "pharmacy" }, "geometry": { "type": "Point", "coordinates": [ 13.4943853, 52.6343256 ] } },
{ "type": "Feature", "properties": { "element": "node", "id": 3089158088, "name": "Leuchtturm Apotheke", "operator": "Claudia Spieß e.K.", "amenity": "pharmacy" }, "geometry": { "type": "Point", "coordinates": [ 13.3070697, 52.6169159 ] } },
{ "type": "Feature", "properties": { "element": "node", "id": 3112851447, "name": "Schlosspark-Apotheke", "operator": null, "amenity": "pharmacy" }, "geometry": { "type": "Point", "coordinates": [ 13.4955488, 52.6348377 ] } },
{ "type": "Feature", "properties": { "element": "node", "id": 3118107216, "name": "Apotheke am ukb", "operator": null, "amenity": "pharmacy" }, "geometry": { "type": "Point", "coordinates": [ 13.5645435, 52.5191748 ] } },
{ "type": "Feature", "properties": { "element": "node", "id": 3157838594, "name": "Apotheke zum Zirkel", "operator": "Jürgen Drescher", "amenity": "pharmacy" }, "geometry": { "type": "Point", "coordinates": [ 13.342445, 52.4672036 ] } },
{ "type": "Feature", "properties": { "element": "node", "id": 3157917186, "name": "Lauter Apotheke", "operator": "Anna Fredrich e.K.", "amenity": "pharmacy" }, "geometry": { "type": "Point", "coordinates": [ 13.3347336, 52.4713396 ] } },
{ "type": "Feature", "properties": { "element": "node", "id": 3167654650, "name": "Apotheke am Hermannplatz", "operator": null, "amenity": "pharmacy" }, "geometry": { "type": "Point", "coordinates": [ 13.4256151, 52.4875333 ] } },
{ "type": "Feature", "properties": { "element": "node", "id": 3206454429, "name": "Karolinen Apotheke", "operator": "Herr S. Stoof", "amenity": "pharmacy" }, "geometry": { "type": "Point", "coordinates": [ 13.28343, 52.5912527 ] } },
{ "type": "Feature", "properties": { "element": "node", "id": 3216711374, "name": "Eick Apotheke", "operator": null, "amenity": "pharmacy" }, "geometry": { "type": "Point", "coordinates": [ 13.4247979, 52.4998605 ] } },
{ "type": "Feature", "properties": { "element": "node", "id": 3229138232, "name": "Diana Apotheke", "operator": null, "amenity": "pharmacy" }, "geometry": { "type": "Point", "coordinates": [ 13.3262168, 52.4622982 ] } },
{ "type": "Feature", "properties": { "element": "node", "id": 3300157792, "name": "Karow Apotheke", "operator": null, "amenity": "pharmacy" }, "geometry": { "type": "Point", "coordinates": [ 13.4855923, 52.616322 ] } },
{ "type": "Feature", "properties": { "element": "node", "id": 3307700070, "name": "Elisabeth Apotheke", "operator": null, "amenity": "pharmacy" }, "geometry": { "type": "Point", "coordinates": [ 13.4258787, 52.5426874 ] } },
{ "type": "Feature", "properties": { "element": "node", "id": 3310052861, "name": "Apotheke Rosenthaler Platz", "operator": null, "amenity": "pharmacy" }, "geometry": { "type": "Point", "coordinates": [ 13.4017313, 52.5299308 ] } },
{ "type": "Feature", "properties": { "element": "node", "id": 3310698935, "name": "Apotheke an der Galenusstraße", "operator": null, "amenity": "pharmacy" }, "geometry": { "type": "Point", "coordinates": [ 13.4237469, 52.5806283 ] } },
{ "type": "Feature", "properties": { "element": "node", "id": 3328474346, "name": "Birken-Apotheke Karow", "operator": null, "amenity": "pharmacy" }, "geometry": { "type": "Point", "coordinates": [ 13.4742827, 52.6119717 ] } },
{ "type": "Feature", "properties": { "element": "node", "id": 3331787468, "name": "Aschenbachs Apotheke", "operator": null, "amenity": "pharmacy" }, "geometry": { "type": "Point", "coordinates": [ 13.3874475, 52.5196854 ] } },
{ "type": "Feature", "properties": { "element": "node", "id": 3334327193, "name": "Apotheke 4.0", "operator": "Apotheken im Center", "amenity": "pharmacy" }, "geometry": { "type": "Point", "coordinates": [ 13.3417528, 52.526505 ] } },
{ "type": "Feature", "properties": { "element": "node", "id": 3337674441, "name": "Kristall Apotheke", "operator": "Kathrin Wernecke e.Kfr.", "amenity": "pharmacy" }, "geometry": { "type": "Point", "coordinates": [ 13.299693, 52.5233862 ] } },
{ "type": "Feature", "properties": { "element": "node", "id": 3337738729, "name": "Apotheke am Heckerdamm", "operator": null, "amenity": "pharmacy" }, "geometry": { "type": "Point", "coordinates": [ 13.2994523, 52.5390832 ] } },
{ "type": "Feature", "properties": { "element": "node", "id": 3337776414, "name": "Eva-Apotheke", "operator": null, "amenity": "pharmacy" }, "geometry": { "type": "Point", "coordinates": [ 13.2003621, 52.5492831 ] } },
{ "type": "Feature", "properties": { "element": "node", "id": 3338623569, "name": "Apotheke Wilhelmstraße", "operator": null, "amenity": "pharmacy" }, "geometry": { "type": "Point", "coordinates": [ 13.1854103, 52.5212776 ] } },
{ "type": "Feature", "properties": { "element": "node", "id": 3338651114, "name": "Gesundheits-Apotheke", "operator": null, "amenity": "pharmacy" }, "geometry": { "type": "Point", "coordinates": [ 13.5240121, 52.4029704 ] } },
{ "type": "Feature", "properties": { "element": "node", "id": 3339491292, "name": "Titisee Apotheke", "operator": null, "amenity": "pharmacy" }, "geometry": { "type": "Point", "coordinates": [ 13.335399, 52.6092923 ] } },
{ "type": "Feature", "properties": { "element": "node", "id": 3340079413, "name": "Oran-Apotheke", "operator": null, "amenity": "pharmacy" }, "geometry": { "type": "Point", "coordinates": [ 13.3346308, 52.5894338 ] } },
{ "type": "Feature", "properties": { "element": "node", "id": 3341588831, "name": "Kolonie-Apotheke", "operator": "Ahmed Aziz", "amenity": "pharmacy" }, "geometry": { "type": "Point", "coordinates": [ 13.3787231, 52.5578575 ] } },
{ "type": "Feature", "properties": { "element": "node", "id": 3350477701, "name": "Nordkreuz Apotheke", "operator": "Ling Girgsdies e.K.", "amenity": "pharmacy" }, "geometry": { "type": "Point", "coordinates": [ 13.3887526, 52.548374 ] } },
{ "type": "Feature", "properties": { "element": "node", "id": 3353191483, "name": "Berlinda Apotheke", "operator": null, "amenity": "pharmacy" }, "geometry": { "type": "Point", "coordinates": [ 13.3197716, 52.4576052 ] } },
{ "type": "Feature", "properties": { "element": "node", "id": 3353229504, "name": "MediosApotheke", "operator": null, "amenity": "pharmacy" }, "geometry": { "type": "Point", "coordinates": [ 13.4108465, 52.567326 ] } },
{ "type": "Feature", "properties": { "element": "node", "id": 3353236089, "name": "Arcaden-Apotheke", "operator": null, "amenity": "pharmacy" }, "geometry": { "type": "Point", "coordinates": [ 13.1977213, 52.5333159 ] } },
{ "type": "Feature", "properties": { "element": "node", "id": 3353252595, "name": "Arcaden-Apotheke", "operator": null, "amenity": "pharmacy" }, "geometry": { "type": "Point", "coordinates": [ 13.3862617, 52.456063 ] } },
{ "type": "Feature", "properties": { "element": "node", "id": 3354050334, "name": "Friedrich-Wilhelm Apotheke", "operator": null, "amenity": "pharmacy" }, "geometry": { "type": "Point", "coordinates": [ 13.3275938, 52.4721004 ] } },
{ "type": "Feature", "properties": { "element": "node", "id": 3357535140, "name": "Kollwitz-Apotheke", "operator": null, "amenity": "pharmacy" }, "geometry": { "type": "Point", "coordinates": [ 13.4182329, 52.5361903 ] } },
{ "type": "Feature", "properties": { "element": "node", "id": 3374665796, "name": "Krankenhaus-Apotheke", "operator": null, "amenity": "pharmacy" }, "geometry": { "type": "Point", "coordinates": [ 13.3446673, 52.5438614 ] } },
{ "type": "Feature", "properties": { "element": "node", "id": 3411987196, "name": "Wittekind-Apotheke am Attilaplatz", "operator": null, "amenity": "pharmacy" }, "geometry": { "type": "Point", "coordinates": [ 13.3754259, 52.4565876 ] } },
{ "type": "Feature", "properties": { "element": "node", "id": 3446123445, "name": "Sophien-Apotheke", "operator": null, "amenity": "pharmacy" }, "geometry": { "type": "Point", "coordinates": [ 13.3968456, 52.5323503 ] } },
{ "type": "Feature", "properties": { "element": "node", "id": 3472167668, "name": "Apotheke Goltzstraße", "operator": "Apotheker David Bekerman e.K.", "amenity": "pharmacy" }, "geometry": { "type": "Point", "coordinates": [ 13.3535927, 52.4939336 ] } },
{ "type": "Feature", "properties": { "element": "node", "id": 3556800140, "name": "Fontane-Apotheke", "operator": null, "amenity": "pharmacy" }, "geometry": { "type": "Point", "coordinates": [ 13.3249245, 52.5015768 ] } },
{ "type": "Feature", "properties": { "element": "node", "id": 3625376503, "name": "Titania Apotheke", "operator": "Apothekerin Sonja Lessing e. K.", "amenity": "pharmacy" }, "geometry": { "type": "Point", "coordinates": [ 13.3261596, 52.463688 ] } },
{ "type": "Feature", "properties": { "element": "node", "id": 3632641123, "name": "Feurig-Apotheke", "operator": "Konstantin Lamboy", "amenity": "pharmacy" }, "geometry": { "type": "Point", "coordinates": [ 13.3533655, 52.4843624 ] } },
{ "type": "Feature", "properties": { "element": "node", "id": 3632641432, "name": "Pommern Apotheke", "operator": null, "amenity": "pharmacy" }, "geometry": { "type": "Point", "coordinates": [ 13.3588471, 52.4885088 ] } },
{ "type": "Feature", "properties": { "element": "node", "id": 3644288801, "name": "Schloss Apotheke", "operator": "Dagmar Wilhelm e.Kfr.", "amenity": "pharmacy" }, "geometry": { "type": "Point", "coordinates": [ 13.5671809, 52.4440241 ] } },
{ "type": "Feature", "properties": { "element": "node", "id": 3652905896, "name": "Rheinstein-Apotheke", "operator": null, "amenity": "pharmacy" }, "geometry": { "type": "Point", "coordinates": [ 13.5270224, 52.48275 ] } },
{ "type": "Feature", "properties": { "element": "node", "id": 3662929427, "name": "Cranach Apotheke", "operator": null, "amenity": "pharmacy" }, "geometry": { "type": "Point", "coordinates": [ 13.3418488, 52.4682275 ] } },
{ "type": "Feature", "properties": { "element": "node", "id": 3666540067, "name": "Roland Apotheke", "operator": null, "amenity": "pharmacy" }, "geometry": { "type": "Point", "coordinates": [ 13.3384366, 52.4947915 ] } },
{ "type": "Feature", "properties": { "element": "node", "id": 3675973919, "name": "Apotheke in der Metropole", "operator": null, "amenity": "pharmacy" }, "geometry": { "type": "Point", "coordinates": [ 13.3306491, 52.5006408 ] } },
{ "type": "Feature", "properties": { "element": "node", "id": 3678881033, "name": "Apotheke am Zoo", "operator": null, "amenity": "pharmacy" }, "geometry": { "type": "Point", "coordinates": [ 13.3317185, 52.5045271 ] } },
{ "type": "Feature", "properties": { "element": "node", "id": 3686215389, "name": "Mörike Apotheke", "operator": "Lars Rieck e.K.", "amenity": "pharmacy" }, "geometry": { "type": "Point", "coordinates": [ 13.4870512, 52.4659153 ] } },
{ "type": "Feature", "properties": { "element": "node", "id": 3727826475, "name": "Greifswalder Apotheke", "operator": null, "amenity": "pharmacy" }, "geometry": { "type": "Point", "coordinates": [ 13.4286374, 52.5328339 ] } },
{ "type": "Feature", "properties": { "element": "node", "id": 3770254015, "name": "Apotheke am Bärenschaufenster", "operator": null, "amenity": "pharmacy" }, "geometry": { "type": "Point", "coordinates": [ 13.5197847, 52.4974009 ] } },
{ "type": "Feature", "properties": { "element": "node", "id": 3772676294, "name": "Linden-Apotheke", "operator": null, "amenity": "pharmacy" }, "geometry": { "type": "Point", "coordinates": [ 13.5063233, 52.5648805 ] } },
{ "type": "Feature", "properties": { "element": "node", "id": 3775184617, "name": "Pannier-Apotheke", "operator": null, "amenity": "pharmacy" }, "geometry": { "type": "Point", "coordinates": [ 13.4299259, 52.4864104 ] } },
{ "type": "Feature", "properties": { "element": "node", "id": 3803786798, "name": "Apotheke im Gesundheitsforum Köpenick", "operator": null, "amenity": "pharmacy" }, "geometry": { "type": "Point", "coordinates": [ 13.5798681, 52.4598672 ] } },
{ "type": "Feature", "properties": { "element": "node", "id": 3826013963, "name": "Magnus Apotheke", "operator": null, "amenity": "pharmacy" }, "geometry": { "type": "Point", "coordinates": [ 13.3508484, 52.4984847 ] } },
{ "type": "Feature", "properties": { "element": "node", "id": 3826455882, "name": "Quartier Apotheke Nolleturm", "operator": null, "amenity": "pharmacy" }, "geometry": { "type": "Point", "coordinates": [ 13.3522231, 52.4993503 ] } },
{ "type": "Feature", "properties": { "element": "node", "id": 3826455892, "name": "ViaPharm", "operator": null, "amenity": "pharmacy" }, "geometry": { "type": "Point", "coordinates": [ 13.3489734, 52.500298 ] } },
{ "type": "Feature", "properties": { "element": "node", "id": 3834271596, "name": "Humboldt-Apotheke", "operator": null, "amenity": "pharmacy" }, "geometry": { "type": "Point", "coordinates": [ 13.3665376, 52.5027647 ] } },
{ "type": "Feature", "properties": { "element": "node", "id": 3844572789, "name": "St. Annen Apotheke", "operator": null, "amenity": "pharmacy" }, "geometry": { "type": "Point", "coordinates": [ 13.3490721, 52.4883801 ] } },
{ "type": "Feature", "properties": { "element": "node", "id": 3859397154, "name": "Quartier Apotheke Maaßenstraße", "operator": "Quartier Apotheke Nollendorfplatz e.K., Kai Uwe Wilken-Prozesky", "amenity": "pharmacy" }, "geometry": { "type": "Point", "coordinates": [ 13.3544313, 52.498601 ] } },
{ "type": "Feature", "properties": { "element": "node", "id": 3861762721, "name": "Hermes-Apotheke", "operator": null, "amenity": "pharmacy" }, "geometry": { "type": "Point", "coordinates": [ 13.3197952, 52.5027976 ] } },
{ "type": "Feature", "properties": { "element": "node", "id": 3883143867, "name": "Sonnen-Apotheke", "operator": "Annette Arendt", "amenity": "pharmacy" }, "geometry": { "type": "Point", "coordinates": [ 13.5171942, 52.4618568 ] } },
{ "type": "Feature", "properties": { "element": "node", "id": 3883215153, "name": "Kant - Apotheke", "operator": "Christine Kempfert", "amenity": "pharmacy" }, "geometry": { "type": "Point", "coordinates": [ 13.5184661, 52.4638103 ] } },
{ "type": "Feature", "properties": { "element": "node", "id": 3914041314, "name": "Sedan Apotheke", "operator": "Hans-Christian Milhahn", "amenity": "pharmacy" }, "geometry": { "type": "Point", "coordinates": [ 13.3356849, 52.4510523 ] } },
{ "type": "Feature", "properties": { "element": "node", "id": 3941585864, "name": "Jasmin Apotheke", "operator": null, "amenity": "pharmacy" }, "geometry": { "type": "Point", "coordinates": [ 13.3929225, 52.5427547 ] } },
{ "type": "Feature", "properties": { "element": "node", "id": 3978727083, "name": "Pharmland", "operator": null, "amenity": "pharmacy" }, "geometry": { "type": "Point", "coordinates": [ 13.5867921, 52.4522616 ] } },
{ "type": "Feature", "properties": { "element": "node", "id": 3987051088, "name": "Casana-Apotheke", "operator": null, "amenity": "pharmacy" }, "geometry": { "type": "Point", "coordinates": [ 13.5705133, 52.5574272 ] } },
{ "type": "Feature", "properties": { "element": "node", "id": 4010310541, "name": "Sonnenhut Apotheke", "operator": "Katrin Paul e. Kfr.", "amenity": "pharmacy" }, "geometry": { "type": "Point", "coordinates": [ 13.6207446, 52.5302632 ] } },
{ "type": "Feature", "properties": { "element": "node", "id": 4116109275, "name": "easyApotheke Marzahn", "operator": null, "amenity": "pharmacy" }, "geometry": { "type": "Point", "coordinates": [ 13.5484221, 52.5441347 ] } },
{ "type": "Feature", "properties": { "element": "node", "id": 4119531056, "name": "Bären-Apotheke", "operator": null, "amenity": "pharmacy" }, "geometry": { "type": "Point", "coordinates": [ 13.4538009, 52.4885571 ] } },
{ "type": "Feature", "properties": { "element": "node", "id": 4197401453, "name": "Die Herz Apotheke 12", "operator": null, "amenity": "pharmacy" }, "geometry": { "type": "Point", "coordinates": [ 13.385108, 52.5506141 ] } },
{ "type": "Feature", "properties": { "element": "node", "id": 4221018789, "name": "Apotheke Helle Mitte", "operator": "Heike Häring e.K.", "amenity": "pharmacy" }, "geometry": { "type": "Point", "coordinates": [ 13.6022698, 52.5376932 ] } },
{ "type": "Feature", "properties": { "element": "node", "id": 4235016190, "name": "Grüne Apotheke", "operator": null, "amenity": "pharmacy" }, "geometry": { "type": "Point", "coordinates": [ 13.6028472, 52.536915 ] } },
{ "type": "Feature", "properties": { "element": "node", "id": 4304413093, "name": "DocKöpenick", "operator": "Omar Sairi e.K.", "amenity": "pharmacy" }, "geometry": { "type": "Point", "coordinates": [ 13.5777029, 52.4569682 ] } },
{ "type": "Feature", "properties": { "element": "node", "id": 4318602145, "name": "Melanchthon Apotheke", "operator": null, "amenity": "pharmacy" }, "geometry": { "type": "Point", "coordinates": [ 13.197578, 52.5191421 ] } },
{ "type": "Feature", "properties": { "element": "node", "id": 4347330563, "name": "Apotheke am Adenauerplatz", "operator": null, "amenity": "pharmacy" }, "geometry": { "type": "Point", "coordinates": [ 13.3075874, 52.50064 ] } },
{ "type": "Feature", "properties": { "element": "node", "id": 4365384392, "name": "Löwenburg-Apotheke", "operator": null, "amenity": "pharmacy" }, "geometry": { "type": "Point", "coordinates": [ 13.4607566, 52.5937649 ] } },
{ "type": "Feature", "properties": { "element": "node", "id": 4381928183, "name": "Apotheke am Bundesplatz", "operator": null, "amenity": "pharmacy" }, "geometry": { "type": "Point", "coordinates": [ 13.3276877, 52.4796809 ] } },
{ "type": "Feature", "properties": { "element": "node", "id": 4396193589, "name": "Müggel-Apotheke", "operator": null, "amenity": "pharmacy" }, "geometry": { "type": "Point", "coordinates": [ 13.660795, 52.4125675 ] } },
{ "type": "Feature", "properties": { "element": "node", "id": 4396385781, "name": "Apotheke am T-Damm", "operator": "Pinar Toprak", "amenity": "pharmacy" }, "geometry": { "type": "Point", "coordinates": [ 13.3840737, 52.4586221 ] } },
{ "type": "Feature", "properties": { "element": "node", "id": 4413004968, "name": "Rosen-Apotheke", "operator": null, "amenity": "pharmacy" }, "geometry": { "type": "Point", "coordinates": [ 13.324363, 52.5651319 ] } },
{ "type": "Feature", "properties": { "element": "node", "id": 4415351535, "name": "Humboldt-Apotheke", "operator": "Apotheker Sliman Dirki e.Kfm.", "amenity": "pharmacy" }, "geometry": { "type": "Point", "coordinates": [ 13.3863624, 52.5281171 ] } },
{ "type": "Feature", "properties": { "element": "node", "id": 4436482370, "name": "Dafne Apotheke", "operator": null, "amenity": "pharmacy" }, "geometry": { "type": "Point", "coordinates": [ 13.3801354, 52.5529761 ] } },
{ "type": "Feature", "properties": { "element": "node", "id": 4439765092, "name": "Drive In", "operator": null, "amenity": "pharmacy" }, "geometry": { "type": "Point", "coordinates": [ 13.4943757, 52.6343857 ] } },
{ "type": "Feature", "properties": { "element": "node", "id": 4485201590, "name": "Apotheke Alt-Lichtenrade", "operator": null, "amenity": "pharmacy" }, "geometry": { "type": "Point", "coordinates": [ 13.410495, 52.3943701 ] } },
{ "type": "Feature", "properties": { "element": "node", "id": 4508100704, "name": "Südend-Apotheke", "operator": null, "amenity": "pharmacy" }, "geometry": { "type": "Point", "coordinates": [ 13.3478529, 52.4497048 ] } },
{ "type": "Feature", "properties": { "element": "node", "id": 4514495946, "name": "Falken-Apotheke", "operator": null, "amenity": "pharmacy" }, "geometry": { "type": "Point", "coordinates": [ 13.4751797, 52.553737 ] } },
{ "type": "Feature", "properties": { "element": "node", "id": 4580235141, "name": "easyApotheke Residenzstraße", "operator": null, "amenity": "pharmacy" }, "geometry": { "type": "Point", "coordinates": [ 13.3621478, 52.56738 ] } },
{ "type": "Feature", "properties": { "element": "node", "id": 4590302593, "name": "Bärenapotheke", "operator": null, "amenity": "pharmacy" }, "geometry": { "type": "Point", "coordinates": [ 13.2694016, 52.4495841 ] } },
{ "type": "Feature", "properties": { "element": "node", "id": 4590578897, "name": "Schneemann's Apotheke Rahnsdorf", "operator": null, "amenity": "pharmacy" }, "geometry": { "type": "Point", "coordinates": [ 13.715511, 52.4315546 ] } },
{ "type": "Feature", "properties": { "element": "node", "id": 4630466562, "name": "Wilhelm-Tell-Apotheke", "operator": null, "amenity": "pharmacy" }, "geometry": { "type": "Point", "coordinates": [ 13.3456239, 52.5662533 ] } },
{ "type": "Feature", "properties": { "element": "node", "id": 4630466565, "name": "Primus-Apotheke", "operator": null, "amenity": "pharmacy" }, "geometry": { "type": "Point", "coordinates": [ 13.3514899, 52.5678274 ] } },
{ "type": "Feature", "properties": { "element": "node", "id": 4656560689, "name": "Zwilling Apotheke", "operator": "R. H. Scheer", "amenity": "pharmacy" }, "geometry": { "type": "Point", "coordinates": [ 13.3082149, 52.467232 ] } },
{ "type": "Feature", "properties": { "element": "node", "id": 4682866291, "name": "Haus Apotheke", "operator": null, "amenity": "pharmacy" }, "geometry": { "type": "Point", "coordinates": [ 13.4566633, 52.5290131 ] } },
{ "type": "Feature", "properties": { "element": "node", "id": 4715153492, "name": "Rathaus-Apotheke", "operator": null, "amenity": "pharmacy" }, "geometry": { "type": "Point", "coordinates": [ 13.6254184, 52.4544602 ] } },
{ "type": "Feature", "properties": { "element": "node", "id": 4737978945, "name": "Kleo Apotheke", "operator": null, "amenity": "pharmacy" }, "geometry": { "type": "Point", "coordinates": [ 13.3487888, 52.5520193 ] } },
{ "type": "Feature", "properties": { "element": "node", "id": 4767441824, "name": "Corso Apotheke", "operator": "Corso-Apotheke", "amenity": "pharmacy" }, "geometry": { "type": "Point", "coordinates": [ 13.5926423, 52.5292971 ] } },
{ "type": "Feature", "properties": { "element": "node", "id": 4936116186, "name": null, "operator": null, "amenity": "pharmacy" }, "geometry": { "type": "Point", "coordinates": [ 13.5924702, 52.5463275 ] } },
{ "type": "Feature", "properties": { "element": "node", "id": 4936408725, "name": "puls Apotheke", "operator": null, "amenity": "pharmacy" }, "geometry": { "type": "Point", "coordinates": [ 13.4092711, 52.3870475 ] } },
{ "type": "Feature", "properties": { "element": "node", "id": 5099191724, "name": "Apotheke des Westens", "operator": null, "amenity": "pharmacy" }, "geometry": { "type": "Point", "coordinates": [ 13.3351723, 52.5035548 ] } },
{ "type": "Feature", "properties": { "element": "node", "id": 5136059327, "name": "Apotheke am Kurfürstendamm", "operator": null, "amenity": "pharmacy" }, "geometry": { "type": "Point", "coordinates": [ 13.320417, 52.5014929 ] } },
{ "type": "Feature", "properties": { "element": "node", "id": 5168728119, "name": "Edelweiss Apotheke", "operator": null, "amenity": "pharmacy" }, "geometry": { "type": "Point", "coordinates": [ 13.3682051, 52.5869484 ] } },
{ "type": "Feature", "properties": { "element": "node", "id": 5181703340, "name": "Königliche Hof-Apotheke", "operator": "Dr. Sabine Maria Knoll-Schütze", "amenity": "pharmacy" }, "geometry": { "type": "Point", "coordinates": [ 13.3091043, 52.516328 ] } },
{ "type": "Feature", "properties": { "element": "node", "id": 5244950366, "name": "Tilia Apotheke", "operator": null, "amenity": "pharmacy" }, "geometry": { "type": "Point", "coordinates": [ 13.3688276, 52.5608476 ] } },
{ "type": "Feature", "properties": { "element": "node", "id": 5266816861, "name": "Apotheke am Weißen See", "operator": "René Rogge", "amenity": "pharmacy" }, "geometry": { "type": "Point", "coordinates": [ 13.4674421, 52.5531267 ] } },
{ "type": "Feature", "properties": { "element": "node", "id": 5381166353, "name": "Kiez-Apotheke", "operator": null, "amenity": "pharmacy" }, "geometry": { "type": "Point", "coordinates": [ 13.5107243, 52.4564723 ] } },
{ "type": "Feature", "properties": { "element": "node", "id": 5471345775, "name": "Center Apotheke", "operator": null, "amenity": "pharmacy" }, "geometry": { "type": "Point", "coordinates": [ 13.422458, 52.5609831 ] } },
{ "type": "Feature", "properties": { "element": "node", "id": 5505144605, "name": "Thüringer Apotheke", "operator": null, "amenity": "pharmacy" }, "geometry": { "type": "Point", "coordinates": [ 13.3265646, 52.4797463 ] } },
{ "type": "Feature", "properties": { "element": "node", "id": 5539552743, "name": "Apotheke an der Dorfkirche", "operator": null, "amenity": "pharmacy" }, "geometry": { "type": "Point", "coordinates": [ 13.2594338, 52.4350381 ] } },
{ "type": "Feature", "properties": { "element": "node", "id": 5558763418, "name": "Kloster-Apotheke", "operator": null, "amenity": "pharmacy" }, "geometry": { "type": "Point", "coordinates": [ 13.4961631, 52.4167392 ] } },
{ "type": "Feature", "properties": { "element": "node", "id": 5570687529, "name": "Linden-Apotheke", "operator": "Jonny Neumann", "amenity": "pharmacy" }, "geometry": { "type": "Point", "coordinates": [ 13.6093932, 52.5336443 ] } },
{ "type": "Feature", "properties": { "element": "node", "id": 5617991157, "name": "Zedern-Apotheke", "operator": "Nuriye Örs-Reppert e.Kfr.", "amenity": "pharmacy" }, "geometry": { "type": "Point", "coordinates": [ 13.3627094, 52.4852031 ] } },
{ "type": "Feature", "properties": { "element": "node", "id": 5625098623, "name": "Hermsdorfer Apotheke", "operator": null, "amenity": "pharmacy" }, "geometry": { "type": "Point", "coordinates": [ 13.3083377, 52.6178582 ] } },
{ "type": "Feature", "properties": { "element": "node", "id": 5777420980, "name": "Schönhauser Apotheke", "operator": "Nico Daniel Reinold", "amenity": "pharmacy" }, "geometry": { "type": "Point", "coordinates": [ 13.4135467, 52.5409918 ] } },
{ "type": "Feature", "properties": { "element": "node", "id": 5838129619, "name": "Apotheke im Policum", "operator": "Astrid Scherer", "amenity": "pharmacy" }, "geometry": { "type": "Point", "coordinates": [ 13.3449085, 52.4638126 ] } },
{ "type": "Feature", "properties": { "element": "node", "id": 5844370747, "name": "Apotheke im Schultheiss Quartier", "operator": null, "amenity": "pharmacy" }, "geometry": { "type": "Point", "coordinates": [ 13.3437617, 52.5279243 ] } },
{ "type": "Feature", "properties": { "element": "node", "id": 5971003197, "name": "Die Herz Apotheke", "operator": null, "amenity": "pharmacy" }, "geometry": { "type": "Point", "coordinates": [ 13.1918731, 52.5286371 ] } },
{ "type": "Feature", "properties": { "element": "node", "id": 6006371223, "name": "Lorbeer-Apotheke", "operator": null, "amenity": "pharmacy" }, "geometry": { "type": "Point", "coordinates": [ 13.4355276, 52.5353496 ] } },
{ "type": "Feature", "properties": { "element": "node", "id": 6143046477, "name": "Pluspunkt Apotheke Potsdamer Platz", "operator": null, "amenity": "pharmacy" }, "geometry": { "type": "Point", "coordinates": [ 13.3736538, 52.506893 ] } },
{ "type": "Feature", "properties": { "element": "node", "id": 6200110157, "name": "Adler-Apotheke", "operator": null, "amenity": "pharmacy" }, "geometry": { "type": "Point", "coordinates": [ 13.4974134, 52.5464133 ] } },
{ "type": "Feature", "properties": { "element": "node", "id": 6254464585, "name": "Apotheke im KaDeWe", "operator": null, "amenity": "pharmacy" }, "geometry": { "type": "Point", "coordinates": [ 13.340043, 52.5011294 ] } },
{ "type": "Feature", "properties": { "element": "node", "id": 6308903438, "name": "Bio 7.0 Apotheke", "operator": "Marietta Dubinski e.K.", "amenity": "pharmacy" }, "geometry": { "type": "Point", "coordinates": [ 13.3223333, 52.5017853 ] } },
{ "type": "Feature", "properties": { "element": "node", "id": 6316429002, "name": "Stier-Apotheke", "operator": null, "amenity": "pharmacy" }, "geometry": { "type": "Point", "coordinates": [ 13.3379088, 52.4740181 ] } },
{ "type": "Feature", "properties": { "element": "node", "id": 6501792388, "name": "Am Schäfersee", "operator": null, "amenity": "pharmacy" }, "geometry": { "type": "Point", "coordinates": [ 13.3567494, 52.5622445 ] } },
{ "type": "Feature", "properties": { "element": "node", "id": 6510008627, "name": "Feuerland-Apotheke", "operator": null, "amenity": "pharmacy" }, "geometry": { "type": "Point", "coordinates": [ 13.3791115, 52.5339592 ] } },
{ "type": "Feature", "properties": { "element": "node", "id": 6518240976, "name": "OLMS-Apotheke", "operator": null, "amenity": "pharmacy" }, "geometry": { "type": "Point", "coordinates": [ 13.3999635, 52.4444414 ] } },
{ "type": "Feature", "properties": { "element": "node", "id": 6939573755, "name": "Apotheke an der Dahme", "operator": null, "amenity": "pharmacy" }, "geometry": { "type": "Point", "coordinates": [ 13.5780562, 52.4209973 ] } },
{ "type": "Feature", "properties": { "element": "node", "id": 7039246613, "name": "Apotheke im Regierungsviertel", "operator": null, "amenity": "pharmacy" }, "geometry": { "type": "Point", "coordinates": [ 13.3825855, 52.512012 ] } },
{ "type": "Feature", "properties": { "element": "node", "id": 7039503416, "name": "Die City Apotheke", "operator": null, "amenity": "pharmacy" }, "geometry": { "type": "Point", "coordinates": [ 13.4257337, 52.4779916 ] } },
{ "type": "Feature", "properties": { "element": "node", "id": 7072465637, "name": "Neumann Apotheke", "operator": null, "amenity": "pharmacy" }, "geometry": { "type": "Point", "coordinates": [ 13.6130564, 52.5062602 ] } },
{ "type": "Feature", "properties": { "element": "node", "id": 7090489961, "name": "Dolgensee-Apotheke", "operator": "Sabine Fischer e.Kfr", "amenity": "pharmacy" }, "geometry": { "type": "Point", "coordinates": [ 13.5073306, 52.4938077 ] } },
{ "type": "Feature", "properties": { "element": "node", "id": 7093679841, "name": "Reseda-Apotheke", "operator": null, "amenity": "pharmacy" }, "geometry": { "type": "Point", "coordinates": [ 13.4343492, 52.5533211 ] } },
{ "type": "Feature", "properties": { "element": "node", "id": 7223008667, "name": "Burg-Apotheke", "operator": null, "amenity": "pharmacy" }, "geometry": { "type": "Point", "coordinates": [ 13.3473596, 52.4146728 ] } },
{ "type": "Feature", "properties": { "element": "node", "id": 7235438319, "name": "Schneemanns Apotheke", "operator": "Carolin und Stefanie Schneemann", "amenity": "pharmacy" }, "geometry": { "type": "Point", "coordinates": [ 13.4995745, 52.5609423 ] } },
{ "type": "Feature", "properties": { "element": "node", "id": 7627061713, "name": "Fontane Apotheke", "operator": null, "amenity": "pharmacy" }, "geometry": { "type": "Point", "coordinates": [ 13.2042266, 52.5371206 ] } },
{ "type": "Feature", "properties": { "element": "node", "id": 7723893754, "name": "Unsere Apotheke", "operator": null, "amenity": "pharmacy" }, "geometry": { "type": "Point", "coordinates": [ 13.3405964, 52.4881753 ] } },
{ "type": "Feature", "properties": { "element": "node", "id": 7822423712, "name": "Herzpunkt Apotheke", "operator": null, "amenity": "pharmacy" }, "geometry": { "type": "Point", "coordinates": [ 13.4285582, 52.5459056 ] } },
{ "type": "Feature", "properties": { "element": "node", "id": 7829177030, "name": "Zentrum Apotheke", "operator": "Hans-Jürgen Bracht e.K.", "amenity": "pharmacy" }, "geometry": { "type": "Point", "coordinates": [ 13.1632186, 52.5218384 ] } },
{ "type": "Feature", "properties": { "element": "node", "id": 7843356143, "name": "Apotheke am Leipziger Platz", "operator": null, "amenity": "pharmacy" }, "geometry": { "type": "Point", "coordinates": [ 13.3813001, 52.5099924 ] } },
{ "type": "Feature", "properties": { "element": "node", "id": 7858528547, "name": "Falken-Apotheke", "operator": null, "amenity": "pharmacy" }, "geometry": { "type": "Point", "coordinates": [ 13.2289448, 52.5846771 ] } },
{ "type": "Feature", "properties": { "element": "node", "id": 7887845846, "name": "Apotheke im Ring-Center II", "operator": null, "amenity": "pharmacy" }, "geometry": { "type": "Point", "coordinates": [ 13.4757696, 52.5145499 ] } },
{ "type": "Feature", "properties": { "element": "node", "id": 7924001320, "name": "Cäcilien Apotheke", "operator": null, "amenity": "pharmacy" }, "geometry": { "type": "Point", "coordinates": [ 13.295222, 52.505317 ] } },
{ "type": "Feature", "properties": { "element": "node", "id": 7951875987, "name": "Fürst Bismarck Apotheke", "operator": "Ilka Stamp", "amenity": "pharmacy" }, "geometry": { "type": "Point", "coordinates": [ 13.4404067, 52.4990942 ] } },
{ "type": "Feature", "properties": { "element": "node", "id": 8139335201, "name": "Löwenzahn Apotheke", "operator": null, "amenity": "pharmacy" }, "geometry": { "type": "Point", "coordinates": [ 13.6204854, 52.536995 ] } },
{ "type": "Feature", "properties": { "element": "node", "id": 8463977955, "name": "Löwenzahn-Apotheke", "operator": null, "amenity": "pharmacy" }, "geometry": { "type": "Point", "coordinates": [ 13.4954864, 52.5702396 ] } },
{ "type": "Feature", "properties": { "element": "node", "id": 8464152653, "name": "Känguruh-Apotheke", "operator": null, "amenity": "pharmacy" }, "geometry": { "type": "Point", "coordinates": [ 13.5711546, 52.5646969 ] } },
{ "type": "Feature", "properties": { "element": "node", "id": 8464152657, "name": "Atrium-Apotheke", "operator": null, "amenity": "pharmacy" }, "geometry": { "type": "Point", "coordinates": [ 13.5686949, 52.5684906 ] } },
{ "type": "Feature", "properties": { "element": "node", "id": 8668129617, "name": "Rialto", "operator": null, "amenity": "pharmacy" }, "geometry": { "type": "Point", "coordinates": [ 13.4286319, 52.5487826 ] } },
{ "type": "Feature", "properties": { "element": "node", "id": 8761696565, "name": "Zehlendorf Apotheke", "operator": null, "amenity": "pharmacy" }, "geometry": { "type": "Point", "coordinates": [ 13.2597431, 52.4330755 ] } },
{ "type": "Feature", "properties": { "element": "node", "id": 9048798363, "name": "easyApotheke", "operator": "Lars Rieck e.K.", "amenity": "pharmacy" }, "geometry": { "type": "Point", "coordinates": [ 13.4318468, 52.4818918 ] } },
{ "type": "Feature", "properties": { "element": "node", "id": 9665677325, "name": "Pelikan Discount Apotheke", "operator": null, "amenity": "pharmacy" }, "geometry": { "type": "Point", "coordinates": [ 13.3852028, 52.4682465 ] } },
{ "type": "Feature", "properties": { "element": "node", "id": 9705828231, "name": "Grüne Apotheke Schmargendorf", "operator": null, "amenity": "pharmacy" }, "geometry": { "type": "Point", "coordinates": [ 13.2887772, 52.4764885 ] } },
{ "type": "Feature", "properties": { "element": "node", "id": 9799003817, "name": "Bromelia Apotheke", "operator": null, "amenity": "pharmacy" }, "geometry": { "type": "Point", "coordinates": [ 13.5380235, 52.5340933 ] } },
{ "type": "Feature", "properties": { "element": "node", "id": 9818005937, "name": "Apotheke Heerstraße-Nord", "operator": null, "amenity": "pharmacy" }, "geometry": { "type": "Point", "coordinates": [ 13.1620771, 52.521879 ] } },
{ "type": "Feature", "properties": { "element": "node", "id": 9861117952, "name": "Panda-Apotheke", "operator": null, "amenity": "pharmacy" }, "geometry": { "type": "Point", "coordinates": [ 13.4030883, 52.4153134 ] } },
{ "type": "Feature", "properties": { "element": "node", "id": 9901787917, "name": "Apotheke am Kutschi", "operator": null, "amenity": "pharmacy" }, "geometry": { "type": "Point", "coordinates": [ 13.3284535, 52.5642372 ] } },
{ "type": "Feature", "properties": { "element": "node", "id": 10018043153, "name": "City Apotheke", "operator": null, "amenity": "pharmacy" }, "geometry": { "type": "Point", "coordinates": [ 13.4222821, 52.525689 ] } },
{ "type": "Feature", "properties": { "element": "node", "id": 10033057617, "name": "Buchholzer Apotheke", "operator": null, "amenity": "pharmacy" }, "geometry": { "type": "Point", "coordinates": [ 13.4323738, 52.6052569 ] } },
{ "type": "Feature", "properties": { "element": "node", "id": 10109657661, "name": "Prager Apotheke", "operator": "Dr. Goetz Krauter", "amenity": "pharmacy" }, "geometry": { "type": "Point", "coordinates": [ 13.3326554, 52.4938498 ] } },
{ "type": "Feature", "properties": { "element": "node", "id": 10658455542, "name": "+1 Apotheke", "operator": "Mayada Al-Hashimi e.K.", "amenity": "pharmacy" }, "geometry": { "type": "Point", "coordinates": [ 13.3948502, 52.540412 ] } },
{ "type": "Feature", "properties": { "element": "node", "id": 10717290064, "name": "Weissenseer Apotheke", "operator": null, "amenity": "pharmacy" }, "geometry": { "type": "Point", "coordinates": [ 13.4507454, 52.5536278 ] } },
{ "type": "Feature", "properties": { "element": "node", "id": 10804876421, "name": null, "operator": null, "amenity": "pharmacy" }, "geometry": { "type": "Point", "coordinates": [ 13.6889974, 52.4411922 ] } },
{ "type": "Feature", "properties": { "element": "node", "id": 10982679274, "name": "easy Apotheke", "operator": null, "amenity": "pharmacy" }, "geometry": { "type": "Point", "coordinates": [ 13.3549158, 52.5992401 ] } },
{ "type": "Feature", "properties": { "element": "node", "id": 10983944860, "name": "Großkreuz-Apotheke", "operator": null, "amenity": "pharmacy" }, "geometry": { "type": "Point", "coordinates": [ 13.3557529, 52.597978 ] } },
{ "type": "Feature", "properties": { "element": "node", "id": 10983962574, "name": "Äskulap-Apotheke", "operator": null, "amenity": "pharmacy" }, "geometry": { "type": "Point", "coordinates": [ 13.3557984, 52.597539 ] } },
{ "type": "Feature", "properties": { "element": "node", "id": 11078666918, "name": "Friedrichsberg-Apotheke", "operator": null, "amenity": "pharmacy" }, "geometry": { "type": "Point", "coordinates": [ 13.4798799, 52.5082273 ] } },
{ "type": "Feature", "properties": { "element": "node", "id": 11260371583, "name": "Alt Marzahner Apotheke", "operator": null, "amenity": "pharmacy" }, "geometry": { "type": "Point", "coordinates": [ 13.5641461, 52.5416626 ] } },
{ "type": "Feature", "properties": { "element": "node", "id": 11418681907, "name": "Brücken Apotheke", "operator": "Apothekerin Christine Marsitzky", "amenity": "pharmacy" }, "geometry": { "type": "Point", "coordinates": [ 13.5341455, 52.5261333 ] } },
{ "type": "Feature", "properties": { "element": "node", "id": 11589912368, "name": "Kienberg-Apotheke", "operator": null, "amenity": "pharmacy" }, "geometry": { "type": "Point", "coordinates": [ 13.5885574, 52.5372498 ] } },
{ "type": "Feature", "properties": { "element": "node", "id": 11778497232, "name": "Oskar Ziethen Apotheke", "operator": null, "amenity": "pharmacy" }, "geometry": { "type": "Point", "coordinates": [ 13.4962174, 52.5127599 ] } },
{ "type": "Feature", "properties": { "element": "node", "id": 11811875867, "name": "Wuhletal Apotheke", "operator": null, "amenity": "pharmacy" }, "geometry": { "type": "Point", "coordinates": [ 13.5699477, 52.5281227 ] } },
{ "type": "Feature", "properties": { "element": "node", "id": 11822086727, "name": "Flieder-Apotheke", "operator": null, "amenity": "pharmacy" }, "geometry": { "type": "Point", "coordinates": [ 13.5945896, 52.4299348 ] } },
{ "type": "Feature", "properties": { "element": "node", "id": 12141688889, "name": "Apotheke in den Hallen am Borsigturm", "operator": null, "amenity": "pharmacy" }, "geometry": { "type": "Point", "coordinates": [ 13.2865008, 52.583964 ] } },
{ "type": "Feature", "properties": { "element": "node", "id": 12277590806, "name": "Apotheke am Lichtenrader Damm", "operator": null, "amenity": "pharmacy" }, "geometry": { "type": "Point", "coordinates": [ 13.4042874, 52.4096484 ] } },
{ "type": "Feature", "properties": { "element": "node", "id": 12872855271, "name": "Apotheke zum Stift", "operator": null, "amenity": "pharmacy" }, "geometry": { "type": "Point", "coordinates": [ 13.3899504, 52.4349255 ] } },
{ "type": "Feature", "properties": { "element": "way", "id": 26323278, "name": "Hufeisen-Apotheke", "operator": null, "amenity": "pharmacy" }, "geometry": { "type": "Polygon", "coordinates": [ [ [ 13.447347, 52.4459935 ], [ 13.4473533, 52.4460384 ], [ 13.4472942, 52.4460414 ], [ 13.4472854, 52.4459808 ], [ 13.4473446, 52.4459771 ], [ 13.447347, 52.4459935 ] ] ] } },
{ "type": "Feature", "properties": { "element": "way", "id": 32367124, "name": "Lilas Apotheke", "operator": null, "amenity": "pharmacy" }, "geometry": { "type": "Polygon", "coordinates": [ [ [ 13.3232397, 52.5088423 ], [ 13.3232486, 52.5089168 ], [ 13.3231208, 52.5089223 ], [ 13.3231102, 52.5088492 ], [ 13.3232397, 52.5088423 ] ] ] } },
{ "type": "Feature", "properties": { "element": "way", "id": 59806041, "name": "Apotheke im Berliner Hauptbahnhof", "operator": null, "amenity": "pharmacy" }, "geometry": { "type": "Polygon", "coordinates": [ [ [ 13.3693172, 52.5257261 ], [ 13.3693422, 52.5256882 ], [ 13.3694846, 52.5254509 ], [ 13.3695318, 52.5254631 ], [ 13.3695583, 52.5254252 ], [ 13.3696108, 52.5254318 ], [ 13.3698077, 52.5254469 ], [ 13.3697482, 52.525535 ], [ 13.3696198, 52.525725 ], [ 13.3695567, 52.5257242 ], [ 13.3694114, 52.5257253 ], [ 13.3693172, 52.5257261 ] ] ] } },
{ "type": "Feature", "properties": { "element": "way", "id": 135737898, "name": "Nikolai Apotheke", "operator": null, "amenity": "pharmacy" }, "geometry": { "type": "Polygon", "coordinates": [ [ [ 13.1696, 52.5180375 ], [ 13.1695826, 52.5180201 ], [ 13.169578, 52.5180155 ], [ 13.1695719, 52.5180178 ], [ 13.1694879, 52.5179327 ], [ 13.1696214, 52.5178831 ], [ 13.1696313, 52.5178928 ], [ 13.1696261, 52.5178946 ], [ 13.1697211, 52.5179899 ], [ 13.1697288, 52.5179873 ], [ 13.1697324, 52.5179911 ], [ 13.1695956, 52.5180417 ], [ 13.1695938, 52.5180399 ], [ 13.1696, 52.5180375 ] ] ] } },
{ "type": "Feature", "properties": { "element": "way", "id": 192889139, "name": "Marien-Apotheke", "operator": null, "amenity": "pharmacy" }, "geometry": { "type": "Polygon", "coordinates": [ [ [ 13.3411794, 52.4339444 ], [ 13.341049, 52.434026 ], [ 13.3411811, 52.4341044 ], [ 13.3412823, 52.4340411 ], [ 13.341276, 52.4340373 ], [ 13.3413052, 52.4340191 ], [ 13.3411794, 52.4339444 ] ] ] } },
{ "type": "Feature", "properties": { "element": "way", "id": 337165575, "name": "Bahnhof-Apotheke Friedrichshain", "operator": null, "amenity": "pharmacy" }, "geometry": { "type": "Polygon", "coordinates": [ [ [ 13.4337766, 52.5100496 ], [ 13.4338256, 52.5100919 ], [ 13.4339919, 52.5100217 ], [ 13.4338673, 52.5099131 ], [ 13.4336312, 52.5100142 ], [ 13.4337068, 52.5100796 ], [ 13.4337766, 52.5100496 ] ] ] } },
{ "type": "Feature", "properties": { "element": "way", "id": 372016529, "name": "Condor Apotheke", "operator": "Matthias Roos e.K.", "amenity": "pharmacy" }, "geometry": { "type": "Polygon", "coordinates": [ [ [ 13.4967143, 52.4153135 ], [ 13.4967232, 52.4153099 ], [ 13.4966462, 52.4152315 ], [ 13.4966676, 52.4152234 ], [ 13.4966522, 52.41519 ], [ 13.4967226, 52.4151756 ], [ 13.4968034, 52.4153249 ], [ 13.4967418, 52.4153365 ], [ 13.4967143, 52.4153135 ] ] ] } },
{ "type": "Feature", "properties": { "element": "way", "id": 381240714, "name": "Apotheke im Bahnhof Südkreuz", "operator": null, "amenity": "pharmacy" }, "geometry": { "type": "Polygon", "coordinates": [ [ [ 13.3644177, 52.4766096 ], [ 13.3643334, 52.4767445 ], [ 13.3642113, 52.4767162 ], [ 13.3642956, 52.4765813 ], [ 13.3643529, 52.4765946 ], [ 13.3643595, 52.4765961 ], [ 13.3643928, 52.4766039 ], [ 13.3644177, 52.4766096 ] ] ] } },
{ "type": "Feature", "properties": { "element": "way", "id": 430955094, "name": "Lichtenberg Apotheke", "operator": "Lukas & Maria Zoschke oHG", "amenity": "pharmacy" }, "geometry": { "type": "Polygon", "coordinates": [ [ [ 13.4974085, 52.5095804 ], [ 13.4972477, 52.5094869 ], [ 13.497185, 52.5095271 ], [ 13.4973476, 52.5096191 ], [ 13.4974085, 52.5095804 ] ] ] } },
{ "type": "Feature", "properties": { "element": "way", "id": 510479858, "name": "Hirsch-Apotheke", "operator": "Christiane von Dallwitz", "amenity": "pharmacy" }, "geometry": { "type": "Polygon", "coordinates": [ [ [ 13.3053656, 52.6184663 ], [ 13.3052287, 52.618433 ], [ 13.3052857, 52.6183561 ], [ 13.3054204, 52.6183924 ], [ 13.3053656, 52.6184663 ] ] ] } },
{ "type": "Feature", "properties": { "element": "way", "id": 739645093, "name": "Arena Apotheke", "operator": null, "amenity": "pharmacy" }, "geometry": { "type": "Polygon", "coordinates": [ [ [ 13.4472291, 52.5059599 ], [ 13.447191, 52.5058773 ], [ 13.4471516, 52.5057918 ], [ 13.4472198, 52.50578 ], [ 13.447173, 52.5056736 ], [ 13.4471709, 52.5056688 ], [ 13.4471691, 52.5056648 ], [ 13.4471664, 52.5056623 ], [ 13.4471608, 52.5056611 ], [ 13.4471201, 52.5056609 ], [ 13.4471232, 52.5058276 ], [ 13.4471388, 52.5058603 ], [ 13.4470564, 52.505875 ], [ 13.4471086, 52.5059812 ], [ 13.4472291, 52.5059599 ] ] ] } },
{ "type": "Feature", "properties": { "element": "way", "id": 1002286243, "name": "Kastanien Apotheke", "operator": "Sandra Bouvain e.K.", "amenity": "pharmacy" }, "geometry": { "type": "Polygon", "coordinates": [ [ [ 13.6054701, 52.5372591 ], [ 13.6053485, 52.5374342 ], [ 13.6054291, 52.5374892 ], [ 13.6054556, 52.5375072 ], [ 13.6055542, 52.5374505 ], [ 13.6054637, 52.5373894 ], [ 13.6055704, 52.5373265 ], [ 13.6054701, 52.5372591 ] ] ] } },
{ "type": "Feature", "properties": { "element": "way", "id": 1208913688, "name": "Prinzen Apotheke", "operator": "Karin Neumann e.K.", "amenity": "pharmacy" }, "geometry": { "type": "Polygon", "coordinates": [ [ [ 13.589852, 52.5130947 ], [ 13.5898403, 52.5130329 ], [ 13.5897774, 52.5130365 ], [ 13.589677, 52.5130941 ], [ 13.589678, 52.5131015 ], [ 13.5896818, 52.5131048 ], [ 13.5896889, 52.5131068 ], [ 13.589852, 52.5130947 ] ] ] } }
]
}
